{"type": "FeatureCollection", "features": [{"type": "Feature", "geometry": {"type": "Polygon", "coordinates": [[[68.0, 8.0], [68.5, 8.0], [68.5, 8.45], [68.0, 8.45], [68.0, 8.0]]]}, "properties": {"ADM2_CODE": 10000, "ADM1_NAME": "Andhra Pradesh", "ADM2_NAME": "Ananthapur"}}, {"type": "Feature", "geometry": {"type": "Polygon", "coordinates": [[[68.55, 8.0], [69.05, 8.0], [69.05, 8.45], [68.55, 8.45], [68.55, 8.0]]]}, "properties": {"ADM2_CODE": 10001, "ADM1_NAME": "Andhra Pradesh", "ADM2_NAME": "Chittoor"}}, {"type": "Feature", "geometry": {"type": "Polygon", "coordinates": [[[69.1, 8.0], [69.6, 8.0], [69.6, 8.45], [69.1, 8.45], [69.1, 8.0]]]}, "properties": {"ADM2_CODE": 10002, "ADM1_NAME": "Andhra Pradesh", "ADM2_NAME": "East Godavari"}}, {"type": "Feature", "geometry": {"type": "Polygon", "coordinates": [[[69.65, 8.0], [70.15, 8.0], [70.15, 8.45], [69.65, 8.45], [69.65, 8.0]]]}, "properties": {"ADM2_CODE": 10003, "ADM1_NAME": "Andhra Pradesh", "ADM2_NAME": "Guntur"}}, {"type": "Feature", "geometry": {"type": "Polygon", "coordinates": [[[70.2, 8.0], [70.7, 8.0], [70.7, 8.45], [70.2, 8.45], [70.2, 8.0]]]}, "properties": {"ADM2_CODE": 10004, "ADM1_NAME": "Andhra Pradesh", "ADM2_NAME": "Kadapa YSR"}}, {"type": "Feature", "geometry": {"type": "Polygon", "coordinates": [[[70.75, 8.0], [71.25, 8.0], [71.25, 8.45], [70.75, 8.45], [70.75, 8.0]]]}, "properties": {"ADM2_CODE": 10005, "ADM1_NAME": "Andhra Pradesh", "ADM2_NAME": "Krishna"}}, {"type": "Feature", "geometry": {"type": "Polygon", "coordinates": [[[71.3, 8.0], [71.8, 8.0], [71.8, 8.45], [71.3, 8.45], [71.3, 8.0]]]}, "properties": {"ADM2_CODE": 10006, "ADM1_NAME": "Andhra Pradesh", "ADM2_NAME": "Kurnool"}}, {"type": "Feature", "geometry": {"type": "Polygon", "coordinates": [[[71.85, 8.0], [72.35, 8.0], [72.35, 8.45], [71.85, 8.45], [71.85, 8.0]]]}, "properties": {"ADM2_CODE": 10007, "ADM1_NAME": "Andhra Pradesh", "ADM2_NAME": "S.P.S. Nellore"}}, {"type": "Feature", "geometry": {"type": "Polygon", "coordinates": [[[72.4, 8.0], [72.9, 8.0], [72.9, 8.45], [72.4, 8.45], [72.4, 8.0]]]}, "properties": {"ADM2_CODE": 10008, "ADM1_NAME": "Andhra Pradesh", "ADM2_NAME": "Srikakulam"}}, {"type": "Feature", "geometry": {"type": "Polygon", "coordinates": [[[72.95, 8.0], [73.45, 8.0], [73.45, 8.45], [72.95, 8.45], [72.95, 8.0]]]}, "properties": {"ADM2_CODE": 10009, "ADM1_NAME": "Andhra Pradesh", "ADM2_NAME": "Visakhapatnam"}}, {"type": "Feature", "geometry": {"type": "Polygon", "coordinates": [[[73.5, 8.0], [74.0, 8.0], [74.0, 8.45], [73.5, 8.45], [73.5, 8.0]]]}, "properties": {"ADM2_CODE": 10010, "ADM1_NAME": "Andhra Pradesh", "ADM2_NAME": "West Godavari"}}, {"type": "Feature", "geometry": {"type": "Polygon", "coordinates": [[[74.05, 8.0], [74.55, 8.0], [74.55, 8.45], [74.05, 8.45], [74.05, 8.0]]]}, "properties": {"ADM2_CODE": 10011, "ADM1_NAME": "Bihar", "ADM2_NAME": "Bhagalpur"}}, {"type": "Feature", "geometry": {"type": "Polygon", "coordinates": [[[74.6, 8.0], [75.1, 8.0], [75.1, 8.45], [74.6, 8.45], [74.6, 8.0]]]}, "properties": {"ADM2_CODE": 10012, "ADM1_NAME": "Bihar", "ADM2_NAME": "Champaran"}}, {"type": "Feature", "geometry": {"type": "Polygon", "coordinates": [[[75.15, 8.0], [75.65, 8.0], [75.65, 8.45], [75.15, 8.45], [75.15, 8.0]]]}, "properties": {"ADM2_CODE": 10013, "ADM1_NAME": "Bihar", "ADM2_NAME": "Darbhanga"}}, {"type": "Feature", "geometry": {"type": "Polygon", "coordinates": [[[75.7, 8.0], [76.2, 8.0], [76.2, 8.45], [75.7, 8.45], [75.7, 8.0]]]}, "properties": {"ADM2_CODE": 10014, "ADM1_NAME": "Bihar", "ADM2_NAME": "Gaya"}}, {"type": "Feature", "geometry": {"type": "Polygon", "coordinates": [[[76.25, 8.0], [76.75, 8.0], [76.75, 8.45], [76.25, 8.45], [76.25, 8.0]]]}, "properties": {"ADM2_CODE": 10015, "ADM1_NAME": "Bihar", "ADM2_NAME": "Mungair"}}, {"type": "Feature", "geometry": {"type": "Polygon", "coordinates": [[[76.8, 8.0], [77.3, 8.0], [77.3, 8.45], [76.8, 8.45], [76.8, 8.0]]]}, "properties": {"ADM2_CODE": 10016, "ADM1_NAME": "Bihar", "ADM2_NAME": "Muzaffarpur"}}, {"type": "Feature", "geometry": {"type": "Polygon", "coordinates": [[[77.35, 8.0], [77.85, 8.0], [77.85, 8.45], [77.35, 8.45], [77.35, 8.0]]]}, "properties": {"ADM2_CODE": 10017, "ADM1_NAME": "Bihar", "ADM2_NAME": "Patna"}}, {"type": "Feature", "geometry": {"type": "Polygon", "coordinates": [[[77.9, 8.0], [78.4, 8.0], [78.4, 8.45], [77.9, 8.45], [77.9, 8.0]]]}, "properties": {"ADM2_CODE": 10018, "ADM1_NAME": "Bihar", "ADM2_NAME": "Purnea"}}, {"type": "Feature", "geometry": {"type": "Polygon", "coordinates": [[[78.45, 8.0], [78.95, 8.0], [78.95, 8.45], [78.45, 8.45], [78.45, 8.0]]]}, "properties": {"ADM2_CODE": 10019, "ADM1_NAME": "Bihar", "ADM2_NAME": "Saharsa"}}, {"type": "Feature", "geometry": {"type": "Polygon", "coordinates": [[[79.0, 8.0], [79.5, 8.0], [79.5, 8.45], [79.0, 8.45], [79.0, 8.0]]]}, "properties": {"ADM2_CODE": 10020, "ADM1_NAME": "Bihar", "ADM2_NAME": "Saran"}}, {"type": "Feature", "geometry": {"type": "Polygon", "coordinates": [[[79.55, 8.0], [80.05, 8.0], [80.05, 8.45], [79.55, 8.45], [79.55, 8.0]]]}, "properties": {"ADM2_CODE": 10021, "ADM1_NAME": "Bihar", "ADM2_NAME": "Shahabad (now part of Bhojpur district)"}}, {"type": "Feature", "geometry": {"type": "Polygon", "coordinates": [[[80.1, 8.0], [80.6, 8.0], [80.6, 8.45], [80.1, 8.45], [80.1, 8.0]]]}, "properties": {"ADM2_CODE": 10022, "ADM1_NAME": "Chhattisgarh", "ADM2_NAME": "Bastar"}}, {"type": "Feature", "geometry": {"type": "Polygon", "coordinates": [[[80.65, 8.0], [81.15, 8.0], [81.15, 8.45], [80.65, 8.45], [80.65, 8.0]]]}, "properties": {"ADM2_CODE": 10023, "ADM1_NAME": "Chhattisgarh", "ADM2_NAME": "Bilaspur"}}, {"type": "Feature", "geometry": {"type": "Polygon", "coordinates": [[[81.2, 8.0], [81.7, 8.0], [81.7, 8.45], [81.2, 8.45], [81.2, 8.0]]]}, "properties": {"ADM2_CODE": 10024, "ADM1_NAME": "Chhattisgarh", "ADM2_NAME": "Durg"}}, {"type": "Feature", "geometry": {"type": "Polygon", "coordinates": [[[81.75, 8.0], [82.25, 8.0], [82.25, 8.45], [81.75, 8.45], [81.75, 8.0]]]}, "properties": {"ADM2_CODE": 10025, "ADM1_NAME": "Chhattisgarh", "ADM2_NAME": "Raigarh"}}, {"type": "Feature", "geometry": {"type": "Polygon", "coordinates": [[[82.3, 8.0], [82.8, 8.0], [82.8, 8.45], [82.3, 8.45], [82.3, 8.0]]]}, "properties": {"ADM2_CODE": 10026, "ADM1_NAME": "Chhattisgarh", "ADM2_NAME": "Raipur"}}, {"type": "Feature", "geometry": {"type": "Polygon", "coordinates": [[[82.85, 8.0], [83.35, 8.0], [83.35, 8.45], [82.85, 8.45], [82.85, 8.0]]]}, "properties": {"ADM2_CODE": 10027, "ADM1_NAME": "Chhattisgarh", "ADM2_NAME": "Surguja"}}, {"type": "Feature", "geometry": {"type": "Polygon", "coordinates": [[[83.4, 8.0], [83.9, 8.0], [83.9, 8.45], [83.4, 8.45], [83.4, 8.0]]]}, "properties": {"ADM2_CODE": 10028, "ADM1_NAME": "Gujarat", "ADM2_NAME": "Ahmedabad"}}, {"type": "Feature", "geometry": {"type": "Polygon", "coordinates": [[[83.95, 8.0], [84.45, 8.0], [84.45, 8.45], [83.95, 8.45], [83.95, 8.0]]]}, "properties": {"ADM2_CODE": 10029, "ADM1_NAME": "Gujarat", "ADM2_NAME": "Amreli"}}, {"type": "Feature", "geometry": {"type": "Polygon", "coordinates": [[[68.0, 8.5], [68.5, 8.5], [68.5, 8.95], [68.0, 8.95], [68.0, 8.5]]]}, "properties": {"ADM2_CODE": 10030, "ADM1_NAME": "Gujarat", "ADM2_NAME": "Banaskantha"}}, {"type": "Feature", "geometry": {"type": "Polygon", "coordinates": [[[68.55, 8.5], [69.05, 8.5], [69.05, 8.95], [68.55, 8.95], [68.55, 8.5]]]}, "properties": {"ADM2_CODE": 10031, "ADM1_NAME": "Gujarat", "ADM2_NAME": "Bharuch"}}, {"type": "Feature", "geometry": {"type": "Polygon", "coordinates": [[[69.1, 8.5], [69.6, 8.5], [69.6, 8.95], [69.1, 8.95], [69.1, 8.5]]]}, "properties": {"ADM2_CODE": 10032, "ADM1_NAME": "Gujarat", "ADM2_NAME": "Bhavnagar"}}, {"type": "Feature", "geometry": {"type": "Polygon", "coordinates": [[[69.65, 8.5], [70.15, 8.5], [70.15, 8.95], [69.65, 8.95], [69.65, 8.5]]]}, "properties": {"ADM2_CODE": 10033, "ADM1_NAME": "Gujarat", "ADM2_NAME": "Dangs"}}, {"type": "Feature", "geometry": {"type": "Polygon", "coordinates": [[[70.2, 8.5], [70.7, 8.5], [70.7, 8.95], [70.2, 8.95], [70.2, 8.5]]]}, "properties": {"ADM2_CODE": 10034, "ADM1_NAME": "Gujarat", "ADM2_NAME": "Jamnagar"}}, {"type": "Feature", "geometry": {"type": "Polygon", "coordinates": [[[70.75, 8.5], [71.25, 8.5], [71.25, 8.95], [70.75, 8.95], [70.75, 8.5]]]}, "properties": {"ADM2_CODE": 10035, "ADM1_NAME": "Gujarat", "ADM2_NAME": "Junagadh"}}, {"type": "Feature", "geometry": {"type": "Polygon", "coordinates": [[[71.3, 8.5], [71.8, 8.5], [71.8, 8.95], [71.3, 8.95], [71.3, 8.5]]]}, "properties": {"ADM2_CODE": 10036, "ADM1_NAME": "Gujarat", "ADM2_NAME": "Kheda"}}, {"type": "Feature", "geometry": {"type": "Polygon", "coordinates": [[[71.85, 8.5], [72.35, 8.5], [72.35, 8.95], [71.85, 8.95], [71.85, 8.5]]]}, "properties": {"ADM2_CODE": 10037, "ADM1_NAME": "Gujarat", "ADM2_NAME": "Kutch"}}, {"type": "Feature", "geometry": {"type": "Polygon", "coordinates": [[[72.4, 8.5], [72.9, 8.5], [72.9, 8.95], [72.4, 8.95], [72.4, 8.5]]]}, "properties": {"ADM2_CODE": 10038, "ADM1_NAME": "Gujarat", "ADM2_NAME": "Mehsana"}}, {"type": "Feature", "geometry": {"type": "Polygon", "coordinates": [[[72.95, 8.5], [73.45, 8.5], [73.45, 8.95], [72.95, 8.95], [72.95, 8.5]]]}, "properties": {"ADM2_CODE": 10039, "ADM1_NAME": "Gujarat", "ADM2_NAME": "Panchmahal"}}, {"type": "Feature", "geometry": {"type": "Polygon", "coordinates": [[[73.5, 8.5], [74.0, 8.5], [74.0, 8.95], [73.5, 8.95], [73.5, 8.5]]]}, "properties": {"ADM2_CODE": 10040, "ADM1_NAME": "Gujarat", "ADM2_NAME": "Rajkot"}}, {"type": "Feature", "geometry": {"type": "Polygon", "coordinates": [[[74.05, 8.5], [74.55, 8.5], [74.55, 8.95], [74.05, 8.95], [74.05, 8.5]]]}, "properties": {"ADM2_CODE": 10041, "ADM1_NAME": "Gujarat", "ADM2_NAME": "Sabarkantha"}}, {"type": "Feature", "geometry": {"type": "Polygon", "coordinates": [[[74.6, 8.5], [75.1, 8.5], [75.1, 8.95], [74.6, 8.95], [74.6, 8.5]]]}, "properties": {"ADM2_CODE": 10042, "ADM1_NAME": "Gujarat", "ADM2_NAME": "Surat"}}, {"type": "Feature", "geometry": {"type": "Polygon", "coordinates": [[[75.15, 8.5], [75.65, 8.5], [75.65, 8.95], [75.15, 8.95], [75.15, 8.5]]]}, "properties": {"ADM2_CODE": 10043, "ADM1_NAME": "Gujarat", "ADM2_NAME": "Surendranagar"}}, {"type": "Feature", "geometry": {"type": "Polygon", "coordinates": [[[75.7, 8.5], [76.2, 8.5], [76.2, 8.95], [75.7, 8.95], [75.7, 8.5]]]}, "properties": {"ADM2_CODE": 10044, "ADM1_NAME": "Gujarat", "ADM2_NAME": "Vadodara / Baroda"}}, {"type": "Feature", "geometry": {"type": "Polygon", "coordinates": [[[76.25, 8.5], [76.75, 8.5], [76.75, 8.95], [76.25, 8.95], [76.25, 8.5]]]}, "properties": {"ADM2_CODE": 10045, "ADM1_NAME": "Gujarat", "ADM2_NAME": "Valsad"}}, {"type": "Feature", "geometry": {"type": "Polygon", "coordinates": [[[76.8, 8.5], [77.3, 8.5], [77.3, 8.95], [76.8, 8.95], [76.8, 8.5]]]}, "properties": {"ADM2_CODE": 10046, "ADM1_NAME": "Haryana", "ADM2_NAME": "Ambala"}}, {"type": "Feature", "geometry": {"type": "Polygon", "coordinates": [[[77.35, 8.5], [77.85, 8.5], [77.85, 8.95], [77.35, 8.95], [77.35, 8.5]]]}, "properties": {"ADM2_CODE": 10047, "ADM1_NAME": "Haryana", "ADM2_NAME": "Gurgaon"}}, {"type": "Feature", "geometry": {"type": "Polygon", "coordinates": [[[77.9, 8.5], [78.4, 8.5], [78.4, 8.95], [77.9, 8.95], [77.9, 8.5]]]}, "properties": {"ADM2_CODE": 10048, "ADM1_NAME": "Haryana", "ADM2_NAME": "Hissar"}}, {"type": "Feature", "geometry": {"type": "Polygon", "coordinates": [[[78.45, 8.5], [78.95, 8.5], [78.95, 8.95], [78.45, 8.95], [78.45, 8.5]]]}, "properties": {"ADM2_CODE": 10049, "ADM1_NAME": "Haryana", "ADM2_NAME": "Jind"}}, {"type": "Feature", "geometry": {"type": "Polygon", "coordinates": [[[79.0, 8.5], [79.5, 8.5], [79.5, 8.95], [79.0, 8.95], [79.0, 8.5]]]}, "properties": {"ADM2_CODE": 10050, "ADM1_NAME": "Haryana", "ADM2_NAME": "Karnal"}}, {"type": "Feature", "geometry": {"type": "Polygon", "coordinates": [[[79.55, 8.5], [80.05, 8.5], [80.05, 8.95], [79.55, 8.95], [79.55, 8.5]]]}, "properties": {"ADM2_CODE": 10051, "ADM1_NAME": "Haryana", "ADM2_NAME": "Mahendragarh / Narnaul"}}, {"type": "Feature", "geometry": {"type": "Polygon", "coordinates": [[[80.1, 8.5], [80.6, 8.5], [80.6, 8.95], [80.1, 8.95], [80.1, 8.5]]]}, "properties": {"ADM2_CODE": 10052, "ADM1_NAME": "Haryana", "ADM2_NAME": "Rohtak"}}, {"type": "Feature", "geometry": {"type": "Polygon", "coordinates": [[[80.65, 8.5], [81.15, 8.5], [81.15, 8.95], [80.65, 8.95], [80.65, 8.5]]]}, "properties": {"ADM2_CODE": 10053, "ADM1_NAME": "Himachal Pradesh", "ADM2_NAME": "Bilashpur"}}, {"type": "Feature", "geometry": {"type": "Polygon", "coordinates": [[[81.2, 8.5], [81.7, 8.5], [81.7, 8.95], [81.2, 8.95], [81.2, 8.5]]]}, "properties": {"ADM2_CODE": 10054, "ADM1_NAME": "Himachal Pradesh", "ADM2_NAME": "Chamba"}}, {"type": "Feature", "geometry": {"type": "Polygon", "coordinates": [[[81.75, 8.5], [82.25, 8.5], [82.25, 8.95], [81.75, 8.95], [81.75, 8.5]]]}, "properties": {"ADM2_CODE": 10055, "ADM1_NAME": "Himachal Pradesh", "ADM2_NAME": "Kangra"}}, {"type": "Feature", "geometry": {"type": "Polygon", "coordinates": [[[82.3, 8.5], [82.8, 8.5], [82.8, 8.95], [82.3, 8.95], [82.3, 8.5]]]}, "properties": {"ADM2_CODE": 10056, "ADM1_NAME": "Himachal Pradesh", "ADM2_NAME": "Kullu"}}, {"type": "Feature", "geometry": {"type": "Polygon", "coordinates": [[[82.85, 8.5], [83.35, 8.5], [83.35, 8.95], [82.85, 8.95], [82.85, 8.5]]]}, "properties": {"ADM2_CODE": 10057, "ADM1_NAME": "Himachal Pradesh", "ADM2_NAME": "Mandi"}}, {"type": "Feature", "geometry": {"type": "Polygon", "coordinates": [[[83.4, 8.5], [83.9, 8.5], [83.9, 8.95], [83.4, 8.95], [83.4, 8.5]]]}, "properties": {"ADM2_CODE": 10058, "ADM1_NAME": "Himachal Pradesh", "ADM2_NAME": "Shimla"}}, {"type": "Feature", "geometry": {"type": "Polygon", "coordinates": [[[83.95, 8.5], [84.45, 8.5], [84.45, 8.95], [83.95, 8.95], [83.95, 8.5]]]}, "properties": {"ADM2_CODE": 10059, "ADM1_NAME": "Himachal Pradesh", "ADM2_NAME": "Sirmaur"}}, {"type": "Feature", "geometry": {"type": "Polygon", "coordinates": [[[68.0, 9.0], [68.5, 9.0], [68.5, 9.45], [68.0, 9.45], [68.0, 9.0]]]}, "properties": {"ADM2_CODE": 10060, "ADM1_NAME": "Himachal Pradesh", "ADM2_NAME": "Solan"}}, {"type": "Feature", "geometry": {"type": "Polygon", "coordinates": [[[68.55, 9.0], [69.05, 9.0], [69.05, 9.45], [68.55, 9.45], [68.55, 9.0]]]}, "properties": {"ADM2_CODE": 10061, "ADM1_NAME": "Jharkhand", "ADM2_NAME": "Dhanbad"}}, {"type": "Feature", "geometry": {"type": "Polygon", "coordinates": [[[69.1, 9.0], [69.6, 9.0], [69.6, 9.45], [69.1, 9.45], [69.1, 9.0]]]}, "properties": {"ADM2_CODE": 10062, "ADM1_NAME": "Jharkhand", "ADM2_NAME": "Hazaribagh"}}, {"type": "Feature", "geometry": {"type": "Polygon", "coordinates": [[[69.65, 9.0], [70.15, 9.0], [70.15, 9.45], [69.65, 9.45], [69.65, 9.0]]]}, "properties": {"ADM2_CODE": 10063, "ADM1_NAME": "Jharkhand", "ADM2_NAME": "Palamau"}}, {"type": "Feature", "geometry": {"type": "Polygon", "coordinates": [[[70.2, 9.0], [70.7, 9.0], [70.7, 9.45], [70.2, 9.45], [70.2, 9.0]]]}, "properties": {"ADM2_CODE": 10064, "ADM1_NAME": "Jharkhand", "ADM2_NAME": "Ranchi"}}, {"type": "Feature", "geometry": {"type": "Polygon", "coordinates": [[[70.75, 9.0], [71.25, 9.0], [71.25, 9.45], [70.75, 9.45], [70.75, 9.0]]]}, "properties": {"ADM2_CODE": 10065, "ADM1_NAME": "Jharkhand", "ADM2_NAME": "Santhal Paragana / Dumka"}}, {"type": "Feature", "geometry": {"type": "Polygon", "coordinates": [[[71.3, 9.0], [71.8, 9.0], [71.8, 9.45], [71.3, 9.45], [71.3, 9.0]]]}, "properties": {"ADM2_CODE": 10066, "ADM1_NAME": "Jharkhand", "ADM2_NAME": "Singhbhum"}}, {"type": "Feature", "geometry": {"type": "Polygon", "coordinates": [[[71.85, 9.0], [72.35, 9.0], [72.35, 9.45], [71.85, 9.45], [71.85, 9.0]]]}, "properties": {"ADM2_CODE": 10067, "ADM1_NAME": "Karnataka", "ADM2_NAME": "Bangalore"}}, {"type": "Feature", "geometry": {"type": "Polygon", "coordinates": [[[72.4, 9.0], [72.9, 9.0], [72.9, 9.45], [72.4, 9.45], [72.4, 9.0]]]}, "properties": {"ADM2_CODE": 10068, "ADM1_NAME": "Karnataka", "ADM2_NAME": "Belgaum"}}, {"type": "Feature", "geometry": {"type": "Polygon", "coordinates": [[[72.95, 9.0], [73.45, 9.0], [73.45, 9.45], [72.95, 9.45], [72.95, 9.0]]]}, "properties": {"ADM2_CODE": 10069, "ADM1_NAME": "Karnataka", "ADM2_NAME": "Bellary"}}, {"type": "Feature", "geometry": {"type": "Polygon", "coordinates": [[[73.5, 9.0], [74.0, 9.0], [74.0, 9.45], [73.5, 9.45], [73.5, 9.0]]]}, "properties": {"ADM2_CODE": 10070, "ADM1_NAME": "Karnataka", "ADM2_NAME": "Bidar"}}, {"type": "Feature", "geometry": {"type": "Polygon", "coordinates": [[[74.05, 9.0], [74.55, 9.0], [74.55, 9.45], [74.05, 9.45], [74.05, 9.0]]]}, "properties": {"ADM2_CODE": 10071, "ADM1_NAME": "Karnataka", "ADM2_NAME": "Bijapur / Vijayapura"}}, {"type": "Feature", "geometry": {"type": "Polygon", "coordinates": [[[74.6, 9.0], [75.1, 9.0], [75.1, 9.45], [74.6, 9.45], [74.6, 9.0]]]}, "properties": {"ADM2_CODE": 10072, "ADM1_NAME": "Karnataka", "ADM2_NAME": "Chickmagalur"}}, {"type": "Feature", "geometry": {"type": "Polygon", "coordinates": [[[75.15, 9.0], [75.65, 9.0], [75.65, 9.45], [75.15, 9.45], [75.15, 9.0]]]}, "properties": {"ADM2_CODE": 10073, "ADM1_NAME": "Karnataka", "ADM2_NAME": "Chitradurga"}}, {"type": "Feature", "geometry": {"type": "Polygon", "coordinates": [[[75.7, 9.0], [76.2, 9.0], [76.2, 9.45], [75.7, 9.45], [75.7, 9.0]]]}, "properties": {"ADM2_CODE": 10074, "ADM1_NAME": "Karnataka", "ADM2_NAME": "Dakshina Kannada"}}, {"type": "Feature", "geometry": {"type": "Polygon", "coordinates": [[[76.25, 9.0], [76.75, 9.0], [76.75, 9.45], [76.25, 9.45], [76.25, 9.0]]]}, "properties": {"ADM2_CODE": 10075, "ADM1_NAME": "Karnataka", "ADM2_NAME": "Dharwad"}}, {"type": "Feature", "geometry": {"type": "Polygon", "coordinates": [[[76.8, 9.0], [77.3, 9.0], [77.3, 9.45], [76.8, 9.45], [76.8, 9.0]]]}, "properties": {"ADM2_CODE": 10076, "ADM1_NAME": "Karnataka", "ADM2_NAME": "Gulbarga / Kalaburagi"}}, {"type": "Feature", "geometry": {"type": "Polygon", "coordinates": [[[77.35, 9.0], [77.85, 9.0], [77.85, 9.45], [77.35, 9.45], [77.35, 9.0]]]}, "properties": {"ADM2_CODE": 10077, "ADM1_NAME": "Karnataka", "ADM2_NAME": "Hassan"}}, {"type": "Feature", "geometry": {"type": "Polygon", "coordinates": [[[77.9, 9.0], [78.4, 9.0], [78.4, 9.45], [77.9, 9.45], [77.9, 9.0]]]}, "properties": {"ADM2_CODE": 10078, "ADM1_NAME": "Karnataka", "ADM2_NAME": "Kodagu / Coorg"}}, {"type": "Feature", "geometry": {"type": "Polygon", "coordinates": [[[78.45, 9.0], [78.95, 9.0], [78.95, 9.45], [78.45, 9.45], [78.45, 9.0]]]}, "properties": {"ADM2_CODE": 10079, "ADM1_NAME": "Karnataka", "ADM2_NAME": "Kolar"}}, {"type": "Feature", "geometry": {"type": "Polygon", "coordinates": [[[79.0, 9.0], [79.5, 9.0], [79.5, 9.45], [79.0, 9.45], [79.0, 9.0]]]}, "properties": {"ADM2_CODE": 10080, "ADM1_NAME": "Karnataka", "ADM2_NAME": "Mandya"}}, {"type": "Feature", "geometry": {"type": "Polygon", "coordinates": [[[79.55, 9.0], [80.05, 9.0], [80.05, 9.45], [79.55, 9.45], [79.55, 9.0]]]}, "properties": {"ADM2_CODE": 10081, "ADM1_NAME": "Karnataka", "ADM2_NAME": "Mysore"}}, {"type": "Feature", "geometry": {"type": "Polygon", "coordinates": [[[80.1, 9.0], [80.6, 9.0], [80.6, 9.45], [80.1, 9.45], [80.1, 9.0]]]}, "properties": {"ADM2_CODE": 10082, "ADM1_NAME": "Karnataka", "ADM2_NAME": "Raichur"}}, {"type": "Feature", "geometry": {"type": "Polygon", "coordinates": [[[80.65, 9.0], [81.15, 9.0], [81.15, 9.45], [80.65, 9.45], [80.65, 9.0]]]}, "properties": {"ADM2_CODE": 10083, "ADM1_NAME": "Karnataka", "ADM2_NAME": "Shimoge"}}, {"type": "Feature", "geometry": {"type": "Polygon", "coordinates": [[[81.2, 9.0], [81.7, 9.0], [81.7, 9.45], [81.2, 9.45], [81.2, 9.0]]]}, "properties": {"ADM2_CODE": 10084, "ADM1_NAME": "Karnataka", "ADM2_NAME": "Tumkur"}}, {"type": "Feature", "geometry": {"type": "Polygon", "coordinates": [[[81.75, 9.0], [82.25, 9.0], [82.25, 9.45], [81.75, 9.45], [81.75, 9.0]]]}, "properties": {"ADM2_CODE": 10085, "ADM1_NAME": "Karnataka", "ADM2_NAME": "Uttara Kannada"}}, {"type": "Feature", "geometry": {"type": "Polygon", "coordinates": [[[82.3, 9.0], [82.8, 9.0], [82.8, 9.45], [82.3, 9.45], [82.3, 9.0]]]}, "properties": {"ADM2_CODE": 10086, "ADM1_NAME": "Kerala", "ADM2_NAME": "Alappuzha"}}, {"type": "Feature", "geometry": {"type": "Polygon", "coordinates": [[[82.85, 9.0], [83.35, 9.0], [83.35, 9.45], [82.85, 9.45], [82.85, 9.0]]]}, "properties": {"ADM2_CODE": 10087, "ADM1_NAME": "Kerala", "ADM2_NAME": "Eranakulam"}}, {"type": "Feature", "geometry": {"type": "Polygon", "coordinates": [[[83.4, 9.0], [83.9, 9.0], [83.9, 9.45], [83.4, 9.45], [83.4, 9.0]]]}, "properties": {"ADM2_CODE": 10088, "ADM1_NAME": "Kerala", "ADM2_NAME": "Kannur"}}, {"type": "Feature", "geometry": {"type": "Polygon", "coordinates": [[[83.95, 9.0], [84.45, 9.0], [84.45, 9.45], [83.95, 9.45], [83.95, 9.0]]]}, "properties": {"ADM2_CODE": 10089, "ADM1_NAME": "Kerala", "ADM2_NAME": "Kollam"}}, {"type": "Feature", "geometry": {"type": "Polygon", "coordinates": [[[68.0, 9.5], [68.5, 9.5], [68.5, 9.95], [68.0, 9.95], [68.0, 9.5]]]}, "properties": {"ADM2_CODE": 10090, "ADM1_NAME": "Kerala", "ADM2_NAME": "Kottayam"}}, {"type": "Feature", "geometry": {"type": "Polygon", "coordinates": [[[68.55, 9.5], [69.05, 9.5], [69.05, 9.95], [68.55, 9.95], [68.55, 9.5]]]}, "properties": {"ADM2_CODE": 10091, "ADM1_NAME": "Kerala", "ADM2_NAME": "Kozhikode"}}, {"type": "Feature", "geometry": {"type": "Polygon", "coordinates": [[[69.1, 9.5], [69.6, 9.5], [69.6, 9.95], [69.1, 9.95], [69.1, 9.5]]]}, "properties": {"ADM2_CODE": 10092, "ADM1_NAME": "Kerala", "ADM2_NAME": "Malappuram"}}, {"type": "Feature", "geometry": {"type": "Polygon", "coordinates": [[[69.65, 9.5], [70.15, 9.5], [70.15, 9.95], [69.65, 9.95], [69.65, 9.5]]]}, "properties": {"ADM2_CODE": 10093, "ADM1_NAME": "Kerala", "ADM2_NAME": "Palakkad"}}, {"type": "Feature", "geometry": {"type": "Polygon", "coordinates": [[[70.2, 9.5], [70.7, 9.5], [70.7, 9.95], [70.2, 9.95], [70.2, 9.5]]]}, "properties": {"ADM2_CODE": 10094, "ADM1_NAME": "Kerala", "ADM2_NAME": "Thiruvananthapuram"}}, {"type": "Feature", "geometry": {"type": "Polygon", "coordinates": [[[70.75, 9.5], [71.25, 9.5], [71.25, 9.95], [70.75, 9.95], [70.75, 9.5]]]}, "properties": {"ADM2_CODE": 10095, "ADM1_NAME": "Kerala", "ADM2_NAME": "Thrissur"}}, {"type": "Feature", "geometry": {"type": "Polygon", "coordinates": [[[71.3, 9.5], [71.8, 9.5], [71.8, 9.95], [71.3, 9.95], [71.3, 9.5]]]}, "properties": {"ADM2_CODE": 10096, "ADM1_NAME": "Madhya Pradesh", "ADM2_NAME": "Balaghat"}}, {"type": "Feature", "geometry": {"type": "Polygon", "coordinates": [[[71.85, 9.5], [72.35, 9.5], [72.35, 9.95], [71.85, 9.95], [71.85, 9.5]]]}, "properties": {"ADM2_CODE": 10097, "ADM1_NAME": "Madhya Pradesh", "ADM2_NAME": "Betul"}}, {"type": "Feature", "geometry": {"type": "Polygon", "coordinates": [[[72.4, 9.5], [72.9, 9.5], [72.9, 9.95], [72.4, 9.95], [72.4, 9.5]]]}, "properties": {"ADM2_CODE": 10098, "ADM1_NAME": "Madhya Pradesh", "ADM2_NAME": "Bhind"}}, {"type": "Feature", "geometry": {"type": "Polygon", "coordinates": [[[72.95, 9.5], [73.45, 9.5], [73.45, 9.95], [72.95, 9.95], [72.95, 9.5]]]}, "properties": {"ADM2_CODE": 10099, "ADM1_NAME": "Madhya Pradesh", "ADM2_NAME": "Chhatarpur"}}, {"type": "Feature", "geometry": {"type": "Polygon", "coordinates": [[[73.5, 9.5], [74.0, 9.5], [74.0, 9.95], [73.5, 9.95], [73.5, 9.5]]]}, "properties": {"ADM2_CODE": 10100, "ADM1_NAME": "Madhya Pradesh", "ADM2_NAME": "Chhindwara"}}, {"type": "Feature", "geometry": {"type": "Polygon", "coordinates": [[[74.05, 9.5], [74.55, 9.5], [74.55, 9.95], [74.05, 9.95], [74.05, 9.5]]]}, "properties": {"ADM2_CODE": 10101, "ADM1_NAME": "Madhya Pradesh", "ADM2_NAME": "Damoh"}}, {"type": "Feature", "geometry": {"type": "Polygon", "coordinates": [[[74.6, 9.5], [75.1, 9.5], [75.1, 9.95], [74.6, 9.95], [74.6, 9.5]]]}, "properties": {"ADM2_CODE": 10102, "ADM1_NAME": "Madhya Pradesh", "ADM2_NAME": "Datia"}}, {"type": "Feature", "geometry": {"type": "Polygon", "coordinates": [[[75.15, 9.5], [75.65, 9.5], [75.65, 9.95], [75.15, 9.95], [75.15, 9.5]]]}, "properties": {"ADM2_CODE": 10103, "ADM1_NAME": "Madhya Pradesh", "ADM2_NAME": "Dewas"}}, {"type": "Feature", "geometry": {"type": "Polygon", "coordinates": [[[75.7, 9.5], [76.2, 9.5], [76.2, 9.95], [75.7, 9.95], [75.7, 9.5]]]}, "properties": {"ADM2_CODE": 10104, "ADM1_NAME": "Madhya Pradesh", "ADM2_NAME": "Dhar"}}, {"type": "Feature", "geometry": {"type": "Polygon", "coordinates": [[[76.25, 9.5], [76.75, 9.5], [76.75, 9.95], [76.25, 9.95], [76.25, 9.5]]]}, "properties": {"ADM2_CODE": 10105, "ADM1_NAME": "Madhya Pradesh", "ADM2_NAME": "Guna"}}, {"type": "Feature", "geometry": {"type": "Polygon", "coordinates": [[[76.8, 9.5], [77.3, 9.5], [77.3, 9.95], [76.8, 9.95], [76.8, 9.5]]]}, "properties": {"ADM2_CODE": 10106, "ADM1_NAME": "Madhya Pradesh", "ADM2_NAME": "Gwalior"}}, {"type": "Feature", "geometry": {"type": "Polygon", "coordinates": [[[77.35, 9.5], [77.85, 9.5], [77.85, 9.95], [77.35, 9.95], [77.35, 9.5]]]}, "properties": {"ADM2_CODE": 10107, "ADM1_NAME": "Madhya Pradesh", "ADM2_NAME": "Hoshangabad"}}, {"type": "Feature", "geometry": {"type": "Polygon", "coordinates": [[[77.9, 9.5], [78.4, 9.5], [78.4, 9.95], [77.9, 9.95], [77.9, 9.5]]]}, "properties": {"ADM2_CODE": 10108, "ADM1_NAME": "Madhya Pradesh", "ADM2_NAME": "Indore"}}, {"type": "Feature", "geometry": {"type": "Polygon", "coordinates": [[[78.45, 9.5], [78.95, 9.5], [78.95, 9.95], [78.45, 9.95], [78.45, 9.5]]]}, "properties": {"ADM2_CODE": 10109, "ADM1_NAME": "Madhya Pradesh", "ADM2_NAME": "Jabalpur"}}, {"type": "Feature", "geometry": {"type": "Polygon", "coordinates": [[[79.0, 9.5], [79.5, 9.5], [79.5, 9.95], [79.0, 9.95], [79.0, 9.5]]]}, "properties": {"ADM2_CODE": 10110, "ADM1_NAME": "Madhya Pradesh", "ADM2_NAME": "Jhabua"}}, {"type": "Feature", "geometry": {"type": "Polygon", "coordinates": [[[79.55, 9.5], [80.05, 9.5], [80.05, 9.95], [79.55, 9.95], [79.55, 9.5]]]}, "properties": {"ADM2_CODE": 10111, "ADM1_NAME": "Madhya Pradesh", "ADM2_NAME": "Khandwa / East Nimar"}}, {"type": "Feature", "geometry": {"type": "Polygon", "coordinates": [[[80.1, 9.5], [80.6, 9.5], [80.6, 9.95], [80.1, 9.95], [80.1, 9.5]]]}, "properties": {"ADM2_CODE": 10112, "ADM1_NAME": "Madhya Pradesh", "ADM2_NAME": "Khargone / West Nimar"}}, {"type": "Feature", "geometry": {"type": "Polygon", "coordinates": [[[80.65, 9.5], [81.15, 9.5], [81.15, 9.95], [80.65, 9.95], [80.65, 9.5]]]}, "properties": {"ADM2_CODE": 10113, "ADM1_NAME": "Madhya Pradesh", "ADM2_NAME": "Mandla"}}, {"type": "Feature", "geometry": {"type": "Polygon", "coordinates": [[[81.2, 9.5], [81.7, 9.5], [81.7, 9.95], [81.2, 9.95], [81.2, 9.5]]]}, "properties": {"ADM2_CODE": 10114, "ADM1_NAME": "Madhya Pradesh", "ADM2_NAME": "Mandsaur"}}, {"type": "Feature", "geometry": {"type": "Polygon", "coordinates": [[[81.75, 9.5], [82.25, 9.5], [82.25, 9.95], [81.75, 9.95], [81.75, 9.5]]]}, "properties": {"ADM2_CODE": 10115, "ADM1_NAME": "Madhya Pradesh", "ADM2_NAME": "Morena"}}, {"type": "Feature", "geometry": {"type": "Polygon", "coordinates": [[[82.3, 9.5], [82.8, 9.5], [82.8, 9.95], [82.3, 9.95], [82.3, 9.5]]]}, "properties": {"ADM2_CODE": 10116, "ADM1_NAME": "Madhya Pradesh", "ADM2_NAME": "Narsinghpur"}}, {"type": "Feature", "geometry": {"type": "Polygon", "coordinates": [[[82.85, 9.5], [83.35, 9.5], [83.35, 9.95], [82.85, 9.95], [82.85, 9.5]]]}, "properties": {"ADM2_CODE": 10117, "ADM1_NAME": "Madhya Pradesh", "ADM2_NAME": "Panna"}}, {"type": "Feature", "geometry": {"type": "Polygon", "coordinates": [[[83.4, 9.5], [83.9, 9.5], [83.9, 9.95], [83.4, 9.95], [83.4, 9.5]]]}, "properties": {"ADM2_CODE": 10118, "ADM1_NAME": "Madhya Pradesh", "ADM2_NAME": "Raisen"}}, {"type": "Feature", "geometry": {"type": "Polygon", "coordinates": [[[83.95, 9.5], [84.45, 9.5], [84.45, 9.95], [83.95, 9.95], [83.95, 9.5]]]}, "properties": {"ADM2_CODE": 10119, "ADM1_NAME": "Madhya Pradesh", "ADM2_NAME": "Rajgarh"}}, {"type": "Feature", "geometry": {"type": "Polygon", "coordinates": [[[68.0, 10.0], [68.5, 10.0], [68.5, 10.45], [68.0, 10.45], [68.0, 10.0]]]}, "properties": {"ADM2_CODE": 10120, "ADM1_NAME": "Madhya Pradesh", "ADM2_NAME": "Ratlam"}}, {"type": "Feature", "geometry": {"type": "Polygon", "coordinates": [[[68.55, 10.0], [69.05, 10.0], [69.05, 10.45], [68.55, 10.45], [68.55, 10.0]]]}, "properties": {"ADM2_CODE": 10121, "ADM1_NAME": "Madhya Pradesh", "ADM2_NAME": "Rewa"}}, {"type": "Feature", "geometry": {"type": "Polygon", "coordinates": [[[69.1, 10.0], [69.6, 10.0], [69.6, 10.45], [69.1, 10.45], [69.1, 10.0]]]}, "properties": {"ADM2_CODE": 10122, "ADM1_NAME": "Madhya Pradesh", "ADM2_NAME": "Sagar"}}, {"type": "Feature", "geometry": {"type": "Polygon", "coordinates": [[[69.65, 10.0], [70.15, 10.0], [70.15, 10.45], [69.65, 10.45], [69.65, 10.0]]]}, "properties": {"ADM2_CODE": 10123, "ADM1_NAME": "Madhya Pradesh", "ADM2_NAME": "Satna"}}, {"type": "Feature", "geometry": {"type": "Polygon", "coordinates": [[[70.2, 10.0], [70.7, 10.0], [70.7, 10.45], [70.2, 10.45], [70.2, 10.0]]]}, "properties": {"ADM2_CODE": 10124, "ADM1_NAME": "Madhya Pradesh", "ADM2_NAME": "Sehore"}}, {"type": "Feature", "geometry": {"type": "Polygon", "coordinates": [[[70.75, 10.0], [71.25, 10.0], [71.25, 10.45], [70.75, 10.45], [70.75, 10.0]]]}, "properties": {"ADM2_CODE": 10125, "ADM1_NAME": "Madhya Pradesh", "ADM2_NAME": "Seoni / Shivani"}}, {"type": "Feature", "geometry": {"type": "Polygon", "coordinates": [[[71.3, 10.0], [71.8, 10.0], [71.8, 10.45], [71.3, 10.45], [71.3, 10.0]]]}, "properties": {"ADM2_CODE": 10126, "ADM1_NAME": "Madhya Pradesh", "ADM2_NAME": "Shahdol"}}, {"type": "Feature", "geometry": {"type": "Polygon", "coordinates": [[[71.85, 10.0], [72.35, 10.0], [72.35, 10.45], [71.85, 10.45], [71.85, 10.0]]]}, "properties": {"ADM2_CODE": 10127, "ADM1_NAME": "Madhya Pradesh", "ADM2_NAME": "Shajapur"}}, {"type": "Feature", "geometry": {"type": "Polygon", "coordinates": [[[72.4, 10.0], [72.9, 10.0], [72.9, 10.45], [72.4, 10.45], [72.4, 10.0]]]}, "properties": {"ADM2_CODE": 10128, "ADM1_NAME": "Madhya Pradesh", "ADM2_NAME": "Shivpuri"}}, {"type": "Feature", "geometry": {"type": "Polygon", "coordinates": [[[72.95, 10.0], [73.45, 10.0], [73.45, 10.45], [72.95, 10.45], [72.95, 10.0]]]}, "properties": {"ADM2_CODE": 10129, "ADM1_NAME": "Madhya Pradesh", "ADM2_NAME": "Sidhi"}}, {"type": "Feature", "geometry": {"type": "Polygon", "coordinates": [[[73.5, 10.0], [74.0, 10.0], [74.0, 10.45], [73.5, 10.45], [73.5, 10.0]]]}, "properties": {"ADM2_CODE": 10130, "ADM1_NAME": "Madhya Pradesh", "ADM2_NAME": "Tikamgarh"}}, {"type": "Feature", "geometry": {"type": "Polygon", "coordinates": [[[74.05, 10.0], [74.55, 10.0], [74.55, 10.45], [74.05, 10.45], [74.05, 10.0]]]}, "properties": {"ADM2_CODE": 10131, "ADM1_NAME": "Madhya Pradesh", "ADM2_NAME": "Ujjain"}}, {"type": "Feature", "geometry": {"type": "Polygon", "coordinates": [[[74.6, 10.0], [75.1, 10.0], [75.1, 10.45], [74.6, 10.45], [74.6, 10.0]]]}, "properties": {"ADM2_CODE": 10132, "ADM1_NAME": "Madhya Pradesh", "ADM2_NAME": "Vidisha"}}, {"type": "Feature", "geometry": {"type": "Polygon", "coordinates": [[[75.15, 10.0], [75.65, 10.0], [75.65, 10.45], [75.15, 10.45], [75.15, 10.0]]]}, "properties": {"ADM2_CODE": 10133, "ADM1_NAME": "Maharashtra", "ADM2_NAME": "Ahmednagar"}}, {"type": "Feature", "geometry": {"type": "Polygon", "coordinates": [[[75.7, 10.0], [76.2, 10.0], [76.2, 10.45], [75.7, 10.45], [75.7, 10.0]]]}, "properties": {"ADM2_CODE": 10134, "ADM1_NAME": "Maharashtra", "ADM2_NAME": "Akola"}}, {"type": "Feature", "geometry": {"type": "Polygon", "coordinates": [[[76.25, 10.0], [76.75, 10.0], [76.75, 10.45], [76.25, 10.45], [76.25, 10.0]]]}, "properties": {"ADM2_CODE": 10135, "ADM1_NAME": "Maharashtra", "ADM2_NAME": "Amarawati"}}, {"type": "Feature", "geometry": {"type": "Polygon", "coordinates": [[[76.8, 10.0], [77.3, 10.0], [77.3, 10.45], [76.8, 10.45], [76.8, 10.0]]]}, "properties": {"ADM2_CODE": 10136, "ADM1_NAME": "Maharashtra", "ADM2_NAME": "Aurangabad"}}, {"type": "Feature", "geometry": {"type": "Polygon", "coordinates": [[[77.35, 10.0], [77.85, 10.0], [77.85, 10.45], [77.35, 10.45], [77.35, 10.0]]]}, "properties": {"ADM2_CODE": 10137, "ADM1_NAME": "Maharashtra", "ADM2_NAME": "Beed"}}, {"type": "Feature", "geometry": {"type": "Polygon", "coordinates": [[[77.9, 10.0], [78.4, 10.0], [78.4, 10.45], [77.9, 10.45], [77.9, 10.0]]]}, "properties": {"ADM2_CODE": 10138, "ADM1_NAME": "Maharashtra", "ADM2_NAME": "Bhandara"}}, {"type": "Feature", "geometry": {"type": "Polygon", "coordinates": [[[78.45, 10.0], [78.95, 10.0], [78.95, 10.45], [78.45, 10.45], [78.45, 10.0]]]}, "properties": {"ADM2_CODE": 10139, "ADM1_NAME": "Maharashtra", "ADM2_NAME": "Buldhana"}}, {"type": "Feature", "geometry": {"type": "Polygon", "coordinates": [[[79.0, 10.0], [79.5, 10.0], [79.5, 10.45], [79.0, 10.45], [79.0, 10.0]]]}, "properties": {"ADM2_CODE": 10140, "ADM1_NAME": "Maharashtra", "ADM2_NAME": "Chandrapur"}}, {"type": "Feature", "geometry": {"type": "Polygon", "coordinates": [[[79.55, 10.0], [80.05, 10.0], [80.05, 10.45], [79.55, 10.45], [79.55, 10.0]]]}, "properties": {"ADM2_CODE": 10141, "ADM1_NAME": "Maharashtra", "ADM2_NAME": "Dhule"}}, {"type": "Feature", "geometry": {"type": "Polygon", "coordinates": [[[80.1, 10.0], [80.6, 10.0], [80.6, 10.45], [80.1, 10.45], [80.1, 10.0]]]}, "properties": {"ADM2_CODE": 10142, "ADM1_NAME": "Maharashtra", "ADM2_NAME": "Jalgaon"}}, {"type": "Feature", "geometry": {"type": "Polygon", "coordinates": [[[80.65, 10.0], [81.15, 10.0], [81.15, 10.45], [80.65, 10.45], [80.65, 10.0]]]}, "properties": {"ADM2_CODE": 10143, "ADM1_NAME": "Maharashtra", "ADM2_NAME": "Kolhapur"}}, {"type": "Feature", "geometry": {"type": "Polygon", "coordinates": [[[81.2, 10.0], [81.7, 10.0], [81.7, 10.45], [81.2, 10.45], [81.2, 10.0]]]}, "properties": {"ADM2_CODE": 10144, "ADM1_NAME": "Maharashtra", "ADM2_NAME": "Nagpur"}}, {"type": "Feature", "geometry": {"type": "Polygon", "coordinates": [[[81.75, 10.0], [82.25, 10.0], [82.25, 10.45], [81.75, 10.45], [81.75, 10.0]]]}, "properties": {"ADM2_CODE": 10145, "ADM1_NAME": "Maharashtra", "ADM2_NAME": "Nanded"}}, {"type": "Feature", "geometry": {"type": "Polygon", "coordinates": [[[82.3, 10.0], [82.8, 10.0], [82.8, 10.45], [82.3, 10.45], [82.3, 10.0]]]}, "properties": {"ADM2_CODE": 10146, "ADM1_NAME": "Maharashtra", "ADM2_NAME": "Nasik"}}, {"type": "Feature", "geometry": {"type": "Polygon", "coordinates": [[[82.85, 10.0], [83.35, 10.0], [83.35, 10.45], [82.85, 10.45], [82.85, 10.0]]]}, "properties": {"ADM2_CODE": 10147, "ADM1_NAME": "Maharashtra", "ADM2_NAME": "Osmanabad"}}, {"type": "Feature", "geometry": {"type": "Polygon", "coordinates": [[[83.4, 10.0], [83.9, 10.0], [83.9, 10.45], [83.4, 10.45], [83.4, 10.0]]]}, "properties": {"ADM2_CODE": 10148, "ADM1_NAME": "Maharashtra", "ADM2_NAME": "Parbhani"}}, {"type": "Feature", "geometry": {"type": "Polygon", "coordinates": [[[83.95, 10.0], [84.45, 10.0], [84.45, 10.45], [83.95, 10.45], [83.95, 10.0]]]}, "properties": {"ADM2_CODE": 10149, "ADM1_NAME": "Maharashtra", "ADM2_NAME": "Pune"}}, {"type": "Feature", "geometry": {"type": "Polygon", "coordinates": [[[68.0, 10.5], [68.5, 10.5], [68.5, 10.95], [68.0, 10.95], [68.0, 10.5]]]}, "properties": {"ADM2_CODE": 10150, "ADM1_NAME": "Maharashtra", "ADM2_NAME": "Raigad"}}, {"type": "Feature", "geometry": {"type": "Polygon", "coordinates": [[[68.55, 10.5], [69.05, 10.5], [69.05, 10.95], [68.55, 10.95], [68.55, 10.5]]]}, "properties": {"ADM2_CODE": 10151, "ADM1_NAME": "Maharashtra", "ADM2_NAME": "Ratnagiri"}}, {"type": "Feature", "geometry": {"type": "Polygon", "coordinates": [[[69.1, 10.5], [69.6, 10.5], [69.6, 10.95], [69.1, 10.95], [69.1, 10.5]]]}, "properties": {"ADM2_CODE": 10152, "ADM1_NAME": "Maharashtra", "ADM2_NAME": "Sangli"}}, {"type": "Feature", "geometry": {"type": "Polygon", "coordinates": [[[69.65, 10.5], [70.15, 10.5], [70.15, 10.95], [69.65, 10.95], [69.65, 10.5]]]}, "properties": {"ADM2_CODE": 10153, "ADM1_NAME": "Maharashtra", "ADM2_NAME": "Satara"}}, {"type": "Feature", "geometry": {"type": "Polygon", "coordinates": [[[70.2, 10.5], [70.7, 10.5], [70.7, 10.95], [70.2, 10.95], [70.2, 10.5]]]}, "properties": {"ADM2_CODE": 10154, "ADM1_NAME": "Maharashtra", "ADM2_NAME": "Solapur"}}, {"type": "Feature", "geometry": {"type": "Polygon", "coordinates": [[[70.75, 10.5], [71.25, 10.5], [71.25, 10.95], [70.75, 10.95], [70.75, 10.5]]]}, "properties": {"ADM2_CODE": 10155, "ADM1_NAME": "Maharashtra", "ADM2_NAME": "Thane"}}, {"type": "Feature", "geometry": {"type": "Polygon", "coordinates": [[[71.3, 10.5], [71.8, 10.5], [71.8, 10.95], [71.3, 10.95], [71.3, 10.5]]]}, "properties": {"ADM2_CODE": 10156, "ADM1_NAME": "Maharashtra", "ADM2_NAME": "Wardha"}}, {"type": "Feature", "geometry": {"type": "Polygon", "coordinates": [[[71.85, 10.5], [72.35, 10.5], [72.35, 10.95], [71.85, 10.95], [71.85, 10.5]]]}, "properties": {"ADM2_CODE": 10157, "ADM1_NAME": "Maharashtra", "ADM2_NAME": "Yeotmal"}}, {"type": "Feature", "geometry": {"type": "Polygon", "coordinates": [[[72.4, 10.5], [72.9, 10.5], [72.9, 10.95], [72.4, 10.95], [72.4, 10.5]]]}, "properties": {"ADM2_CODE": 10158, "ADM1_NAME": "Orissa", "ADM2_NAME": "Balasore"}}, {"type": "Feature", "geometry": {"type": "Polygon", "coordinates": [[[72.95, 10.5], [73.45, 10.5], [73.45, 10.95], [72.95, 10.95], [72.95, 10.5]]]}, "properties": {"ADM2_CODE": 10159, "ADM1_NAME": "Orissa", "ADM2_NAME": "Bolangir"}}, {"type": "Feature", "geometry": {"type": "Polygon", "coordinates": [[[73.5, 10.5], [74.0, 10.5], [74.0, 10.95], [73.5, 10.95], [73.5, 10.5]]]}, "properties": {"ADM2_CODE": 10160, "ADM1_NAME": "Orissa", "ADM2_NAME": "Cuttack"}}, {"type": "Feature", "geometry": {"type": "Polygon", "coordinates": [[[74.05, 10.5], [74.55, 10.5], [74.55, 10.95], [74.05, 10.95], [74.05, 10.5]]]}, "properties": {"ADM2_CODE": 10161, "ADM1_NAME": "Orissa", "ADM2_NAME": "Dhenkanal"}}, {"type": "Feature", "geometry": {"type": "Polygon", "coordinates": [[[74.6, 10.5], [75.1, 10.5], [75.1, 10.95], [74.6, 10.95], [74.6, 10.5]]]}, "properties": {"ADM2_CODE": 10162, "ADM1_NAME": "Orissa", "ADM2_NAME": "Ganjam"}}, {"type": "Feature", "geometry": {"type": "Polygon", "coordinates": [[[75.15, 10.5], [75.65, 10.5], [75.65, 10.95], [75.15, 10.95], [75.15, 10.5]]]}, "properties": {"ADM2_CODE": 10163, "ADM1_NAME": "Orissa", "ADM2_NAME": "Kalahandi"}}, {"type": "Feature", "geometry": {"type": "Polygon", "coordinates": [[[75.7, 10.5], [76.2, 10.5], [76.2, 10.95], [75.7, 10.95], [75.7, 10.5]]]}, "properties": {"ADM2_CODE": 10164, "ADM1_NAME": "Orissa", "ADM2_NAME": "Keonjhar"}}, {"type": "Feature", "geometry": {"type": "Polygon", "coordinates": [[[76.25, 10.5], [76.75, 10.5], [76.75, 10.95], [76.25, 10.95], [76.25, 10.5]]]}, "properties": {"ADM2_CODE": 10165, "ADM1_NAME": "Orissa", "ADM2_NAME": "Koraput"}}, {"type": "Feature", "geometry": {"type": "Polygon", "coordinates": [[[76.8, 10.5], [77.3, 10.5], [77.3, 10.95], [76.8, 10.95], [76.8, 10.5]]]}, "properties": {"ADM2_CODE": 10166, "ADM1_NAME": "Orissa", "ADM2_NAME": "Mayurbhanja"}}, {"type": "Feature", "geometry": {"type": "Polygon", "coordinates": [[[77.35, 10.5], [77.85, 10.5], [77.85, 10.95], [77.35, 10.95], [77.35, 10.5]]]}, "properties": {"ADM2_CODE": 10167, "ADM1_NAME": "Orissa", "ADM2_NAME": "Phulbani ( Kandhamal )"}}, {"type": "Feature", "geometry": {"type": "Polygon", "coordinates": [[[77.9, 10.5], [78.4, 10.5], [78.4, 10.95], [77.9, 10.95], [77.9, 10.5]]]}, "properties": {"ADM2_CODE": 10168, "ADM1_NAME": "Orissa", "ADM2_NAME": "Puri"}}, {"type": "Feature", "geometry": {"type": "Polygon", "coordinates": [[[78.45, 10.5], [78.95, 10.5], [78.95, 10.95], [78.45, 10.95], [78.45, 10.5]]]}, "properties": {"ADM2_CODE": 10169, "ADM1_NAME": "Orissa", "ADM2_NAME": "Sambalpur"}}, {"type": "Feature", "geometry": {"type": "Polygon", "coordinates": [[[79.0, 10.5], [79.5, 10.5], [79.5, 10.95], [79.0, 10.95], [79.0, 10.5]]]}, "properties": {"ADM2_CODE": 10170, "ADM1_NAME": "Orissa", "ADM2_NAME": "Sundargarh"}}, {"type": "Feature", "geometry": {"type": "Polygon", "coordinates": [[[79.55, 10.5], [80.05, 10.5], [80.05, 10.95], [79.55, 10.95], [79.55, 10.5]]]}, "properties": {"ADM2_CODE": 10171, "ADM1_NAME": "Punjab", "ADM2_NAME": "Amritsar"}}, {"type": "Feature", "geometry": {"type": "Polygon", "coordinates": [[[80.1, 10.5], [80.6, 10.5], [80.6, 10.95], [80.1, 10.95], [80.1, 10.5]]]}, "properties": {"ADM2_CODE": 10172, "ADM1_NAME": "Punjab", "ADM2_NAME": "Bhatinda"}}, {"type": "Feature", "geometry": {"type": "Polygon", "coordinates": [[[80.65, 10.5], [81.15, 10.5], [81.15, 10.95], [80.65, 10.95], [80.65, 10.5]]]}, "properties": {"ADM2_CODE": 10173, "ADM1_NAME": "Punjab", "ADM2_NAME": "Ferozpur"}}, {"type": "Feature", "geometry": {"type": "Polygon", "coordinates": [[[81.2, 10.5], [81.7, 10.5], [81.7, 10.95], [81.2, 10.95], [81.2, 10.5]]]}, "properties": {"ADM2_CODE": 10174, "ADM1_NAME": "Punjab", "ADM2_NAME": "Gurdaspur"}}, {"type": "Feature", "geometry": {"type": "Polygon", "coordinates": [[[81.75, 10.5], [82.25, 10.5], [82.25, 10.95], [81.75, 10.95], [81.75, 10.5]]]}, "properties": {"ADM2_CODE": 10175, "ADM1_NAME": "Punjab", "ADM2_NAME": "Hoshiarpur"}}, {"type": "Feature", "geometry": {"type": "Polygon", "coordinates": [[[82.3, 10.5], [82.8, 10.5], [82.8, 10.95], [82.3, 10.95], [82.3, 10.5]]]}, "properties": {"ADM2_CODE": 10176, "ADM1_NAME": "Punjab", "ADM2_NAME": "Jalandhar"}}, {"type": "Feature", "geometry": {"type": "Polygon", "coordinates": [[[82.85, 10.5], [83.35, 10.5], [83.35, 10.95], [82.85, 10.95], [82.85, 10.5]]]}, "properties": {"ADM2_CODE": 10177, "ADM1_NAME": "Punjab", "ADM2_NAME": "Kapurthala"}}, {"type": "Feature", "geometry": {"type": "Polygon", "coordinates": [[[83.4, 10.5], [83.9, 10.5], [83.9, 10.95], [83.4, 10.95], [83.4, 10.5]]]}, "properties": {"ADM2_CODE": 10178, "ADM1_NAME": "Punjab", "ADM2_NAME": "Ludhiana"}}, {"type": "Feature", "geometry": {"type": "Polygon", "coordinates": [[[83.95, 10.5], [84.45, 10.5], [84.45, 10.95], [83.95, 10.95], [83.95, 10.5]]]}, "properties": {"ADM2_CODE": 10179, "ADM1_NAME": "Punjab", "ADM2_NAME": "Patiala"}}, {"type": "Feature", "geometry": {"type": "Polygon", "coordinates": [[[68.0, 11.0], [68.5, 11.0], [68.5, 11.45], [68.0, 11.45], [68.0, 11.0]]]}, "properties": {"ADM2_CODE": 10180, "ADM1_NAME": "Punjab", "ADM2_NAME": "Roopnagar / Ropar"}}, {"type": "Feature", "geometry": {"type": "Polygon", "coordinates": [[[68.55, 11.0], [69.05, 11.0], [69.05, 11.45], [68.55, 11.45], [68.55, 11.0]]]}, "properties": {"ADM2_CODE": 10181, "ADM1_NAME": "Punjab", "ADM2_NAME": "Sangrur"}}, {"type": "Feature", "geometry": {"type": "Polygon", "coordinates": [[[69.1, 11.0], [69.6, 11.0], [69.6, 11.45], [69.1, 11.45], [69.1, 11.0]]]}, "properties": {"ADM2_CODE": 10182, "ADM1_NAME": "Rajasthan", "ADM2_NAME": "Ajmer"}}, {"type": "Feature", "geometry": {"type": "Polygon", "coordinates": [[[69.65, 11.0], [70.15, 11.0], [70.15, 11.45], [69.65, 11.45], [69.65, 11.0]]]}, "properties": {"ADM2_CODE": 10183, "ADM1_NAME": "Rajasthan", "ADM2_NAME": "Alwar"}}, {"type": "Feature", "geometry": {"type": "Polygon", "coordinates": [[[70.2, 11.0], [70.7, 11.0], [70.7, 11.45], [70.2, 11.45], [70.2, 11.0]]]}, "properties": {"ADM2_CODE": 10184, "ADM1_NAME": "Rajasthan", "ADM2_NAME": "Banswara"}}, {"type": "Feature", "geometry": {"type": "Polygon", "coordinates": [[[70.75, 11.0], [71.25, 11.0], [71.25, 11.45], [70.75, 11.45], [70.75, 11.0]]]}, "properties": {"ADM2_CODE": 10185, "ADM1_NAME": "Rajasthan", "ADM2_NAME": "Barmer"}}, {"type": "Feature", "geometry": {"type": "Polygon", "coordinates": [[[71.3, 11.0], [71.8, 11.0], [71.8, 11.45], [71.3, 11.45], [71.3, 11.0]]]}, "properties": {"ADM2_CODE": 10186, "ADM1_NAME": "Rajasthan", "ADM2_NAME": "Bharatpur"}}, {"type": "Feature", "geometry": {"type": "Polygon", "coordinates": [[[71.85, 11.0], [72.35, 11.0], [72.35, 11.45], [71.85, 11.45], [71.85, 11.0]]]}, "properties": {"ADM2_CODE": 10187, "ADM1_NAME": "Rajasthan", "ADM2_NAME": "Bhilwara"}}, {"type": "Feature", "geometry": {"type": "Polygon", "coordinates": [[[72.4, 11.0], [72.9, 11.0], [72.9, 11.45], [72.4, 11.45], [72.4, 11.0]]]}, "properties": {"ADM2_CODE": 10188, "ADM1_NAME": "Rajasthan", "ADM2_NAME": "Bikaner"}}, {"type": "Feature", "geometry": {"type": "Polygon", "coordinates": [[[72.95, 11.0], [73.45, 11.0], [73.45, 11.45], [72.95, 11.45], [72.95, 11.0]]]}, "properties": {"ADM2_CODE": 10189, "ADM1_NAME": "Rajasthan", "ADM2_NAME": "Bundi"}}, {"type": "Feature", "geometry": {"type": "Polygon", "coordinates": [[[73.5, 11.0], [74.0, 11.0], [74.0, 11.45], [73.5, 11.45], [73.5, 11.0]]]}, "properties": {"ADM2_CODE": 10190, "ADM1_NAME": "Rajasthan", "ADM2_NAME": "Chittorgarh"}}, {"type": "Feature", "geometry": {"type": "Polygon", "coordinates": [[[74.05, 11.0], [74.55, 11.0], [74.55, 11.45], [74.05, 11.45], [74.05, 11.0]]]}, "properties": {"ADM2_CODE": 10191, "ADM1_NAME": "Rajasthan", "ADM2_NAME": "Churu"}}, {"type": "Feature", "geometry": {"type": "Polygon", "coordinates": [[[74.6, 11.0], [75.1, 11.0], [75.1, 11.45], [74.6, 11.45], [74.6, 11.0]]]}, "properties": {"ADM2_CODE": 10192, "ADM1_NAME": "Rajasthan", "ADM2_NAME": "Dungarpur"}}, {"type": "Feature", "geometry": {"type": "Polygon", "coordinates": [[[75.15, 11.0], [75.65, 11.0], [75.65, 11.45], [75.15, 11.45], [75.15, 11.0]]]}, "properties": {"ADM2_CODE": 10193, "ADM1_NAME": "Rajasthan", "ADM2_NAME": "Ganganagar"}}, {"type": "Feature", "geometry": {"type": "Polygon", "coordinates": [[[75.7, 11.0], [76.2, 11.0], [76.2, 11.45], [75.7, 11.45], [75.7, 11.0]]]}, "properties": {"ADM2_CODE": 10194, "ADM1_NAME": "Rajasthan", "ADM2_NAME": "Jaipur"}}, {"type": "Feature", "geometry": {"type": "Polygon", "coordinates": [[[76.25, 11.0], [76.75, 11.0], [76.75, 11.45], [76.25, 11.45], [76.25, 11.0]]]}, "properties": {"ADM2_CODE": 10195, "ADM1_NAME": "Rajasthan", "ADM2_NAME": "Jaisalmer"}}, {"type": "Feature", "geometry": {"type": "Polygon", "coordinates": [[[76.8, 11.0], [77.3, 11.0], [77.3, 11.45], [76.8, 11.45], [76.8, 11.0]]]}, "properties": {"ADM2_CODE": 10196, "ADM1_NAME": "Rajasthan", "ADM2_NAME": "Jalore"}}, {"type": "Feature", "geometry": {"type": "Polygon", "coordinates": [[[77.35, 11.0], [77.85, 11.0], [77.85, 11.45], [77.35, 11.45], [77.35, 11.0]]]}, "properties": {"ADM2_CODE": 10197, "ADM1_NAME": "Rajasthan", "ADM2_NAME": "Jhalawar"}}, {"type": "Feature", "geometry": {"type": "Polygon", "coordinates": [[[77.9, 11.0], [78.4, 11.0], [78.4, 11.45], [77.9, 11.45], [77.9, 11.0]]]}, "properties": {"ADM2_CODE": 10198, "ADM1_NAME": "Rajasthan", "ADM2_NAME": "Jhunjhunu"}}, {"type": "Feature", "geometry": {"type": "Polygon", "coordinates": [[[78.45, 11.0], [78.95, 11.0], [78.95, 11.45], [78.45, 11.45], [78.45, 11.0]]]}, "properties": {"ADM2_CODE": 10199, "ADM1_NAME": "Rajasthan", "ADM2_NAME": "Jodhpur"}}, {"type": "Feature", "geometry": {"type": "Polygon", "coordinates": [[[79.0, 11.0], [79.5, 11.0], [79.5, 11.45], [79.0, 11.45], [79.0, 11.0]]]}, "properties": {"ADM2_CODE": 10200, "ADM1_NAME": "Rajasthan", "ADM2_NAME": "Kota"}}, {"type": "Feature", "geometry": {"type": "Polygon", "coordinates": [[[79.55, 11.0], [80.05, 11.0], [80.05, 11.45], [79.55, 11.45], [79.55, 11.0]]]}, "properties": {"ADM2_CODE": 10201, "ADM1_NAME": "Rajasthan", "ADM2_NAME": "Nagaur"}}, {"type": "Feature", "geometry": {"type": "Polygon", "coordinates": [[[80.1, 11.0], [80.6, 11.0], [80.6, 11.45], [80.1, 11.45], [80.1, 11.0]]]}, "properties": {"ADM2_CODE": 10202, "ADM1_NAME": "Rajasthan", "ADM2_NAME": "Pali"}}, {"type": "Feature", "geometry": {"type": "Polygon", "coordinates": [[[80.65, 11.0], [81.15, 11.0], [81.15, 11.45], [80.65, 11.45], [80.65, 11.0]]]}, "properties": {"ADM2_CODE": 10203, "ADM1_NAME": "Rajasthan", "ADM2_NAME": "Sikar"}}, {"type": "Feature", "geometry": {"type": "Polygon", "coordinates": [[[81.2, 11.0], [81.7, 11.0], [81.7, 11.45], [81.2, 11.45], [81.2, 11.0]]]}, "properties": {"ADM2_CODE": 10204, "ADM1_NAME": "Rajasthan", "ADM2_NAME": "Sirohi"}}, {"type": "Feature", "geometry": {"type": "Polygon", "coordinates": [[[81.75, 11.0], [82.25, 11.0], [82.25, 11.45], [81.75, 11.45], [81.75, 11.0]]]}, "properties": {"ADM2_CODE": 10205, "ADM1_NAME": "Rajasthan", "ADM2_NAME": "Swami Madhopur"}}, {"type": "Feature", "geometry": {"type": "Polygon", "coordinates": [[[82.3, 11.0], [82.8, 11.0], [82.8, 11.45], [82.3, 11.45], [82.3, 11.0]]]}, "properties": {"ADM2_CODE": 10206, "ADM1_NAME": "Rajasthan", "ADM2_NAME": "Tonk"}}, {"type": "Feature", "geometry": {"type": "Polygon", "coordinates": [[[82.85, 11.0], [83.35, 11.0], [83.35, 11.45], [82.85, 11.45], [82.85, 11.0]]]}, "properties": {"ADM2_CODE": 10207, "ADM1_NAME": "Rajasthan", "ADM2_NAME": "Udaipur"}}, {"type": "Feature", "geometry": {"type": "Polygon", "coordinates": [[[83.4, 11.0], [83.9, 11.0], [83.9, 11.45], [83.4, 11.45], [83.4, 11.0]]]}, "properties": {"ADM2_CODE": 10208, "ADM1_NAME": "Tamil Nadu", "ADM2_NAME": "Chengalpattu MGR / Kanchipuram"}}, {"type": "Feature", "geometry": {"type": "Polygon", "coordinates": [[[83.95, 11.0], [84.45, 11.0], [84.45, 11.45], [83.95, 11.45], [83.95, 11.0]]]}, "properties": {"ADM2_CODE": 10209, "ADM1_NAME": "Tamil Nadu", "ADM2_NAME": "Coimbatore"}}, {"type": "Feature", "geometry": {"type": "Polygon", "coordinates": [[[68.0, 11.5], [68.5, 11.5], [68.5, 11.95], [68.0, 11.95], [68.0, 11.5]]]}, "properties": {"ADM2_CODE": 10210, "ADM1_NAME": "Tamil Nadu", "ADM2_NAME": "Kanyakumari"}}, {"type": "Feature", "geometry": {"type": "Polygon", "coordinates": [[[68.55, 11.5], [69.05, 11.5], [69.05, 11.95], [68.55, 11.95], [68.55, 11.5]]]}, "properties": {"ADM2_CODE": 10211, "ADM1_NAME": "Tamil Nadu", "ADM2_NAME": "Madurai"}}, {"type": "Feature", "geometry": {"type": "Polygon", "coordinates": [[[69.1, 11.5], [69.6, 11.5], [69.6, 11.95], [69.1, 11.95], [69.1, 11.5]]]}, "properties": {"ADM2_CODE": 10212, "ADM1_NAME": "Tamil Nadu", "ADM2_NAME": "North Arcot / Vellore"}}, {"type": "Feature", "geometry": {"type": "Polygon", "coordinates": [[[69.65, 11.5], [70.15, 11.5], [70.15, 11.95], [69.65, 11.95], [69.65, 11.5]]]}, "properties": {"ADM2_CODE": 10213, "ADM1_NAME": "Tamil Nadu", "ADM2_NAME": "Ramananthapuram"}}, {"type": "Feature", "geometry": {"type": "Polygon", "coordinates": [[[70.2, 11.5], [70.7, 11.5], [70.7, 11.95], [70.2, 11.95], [70.2, 11.5]]]}, "properties": {"ADM2_CODE": 10214, "ADM1_NAME": "Tamil Nadu", "ADM2_NAME": "Salem"}}, {"type": "Feature", "geometry": {"type": "Polygon", "coordinates": [[[70.75, 11.5], [71.25, 11.5], [71.25, 11.95], [70.75, 11.95], [70.75, 11.5]]]}, "properties": {"ADM2_CODE": 10215, "ADM1_NAME": "Tamil Nadu", "ADM2_NAME": "South Arcot / Cuddalore"}}, {"type": "Feature", "geometry": {"type": "Polygon", "coordinates": [[[71.3, 11.5], [71.8, 11.5], [71.8, 11.95], [71.3, 11.95], [71.3, 11.5]]]}, "properties": {"ADM2_CODE": 10216, "ADM1_NAME": "Tamil Nadu", "ADM2_NAME": "Thanjavur"}}, {"type": "Feature", "geometry": {"type": "Polygon", "coordinates": [[[71.85, 11.5], [72.35, 11.5], [72.35, 11.95], [71.85, 11.95], [71.85, 11.5]]]}, "properties": {"ADM2_CODE": 10217, "ADM1_NAME": "Tamil Nadu", "ADM2_NAME": "The Nilgiris"}}, {"type": "Feature", "geometry": {"type": "Polygon", "coordinates": [[[72.4, 11.5], [72.9, 11.5], [72.9, 11.95], [72.4, 11.95], [72.4, 11.5]]]}, "properties": {"ADM2_CODE": 10218, "ADM1_NAME": "Tamil Nadu", "ADM2_NAME": "Thirunelveli"}}, {"type": "Feature", "geometry": {"type": "Polygon", "coordinates": [[[72.95, 11.5], [73.45, 11.5], [73.45, 11.95], [72.95, 11.95], [72.95, 11.5]]]}, "properties": {"ADM2_CODE": 10219, "ADM1_NAME": "Tamil Nadu", "ADM2_NAME": "Tiruchirapalli / Trichy"}}, {"type": "Feature", "geometry": {"type": "Polygon", "coordinates": [[[73.5, 11.5], [74.0, 11.5], [74.0, 11.95], [73.5, 11.95], [73.5, 11.5]]]}, "properties": {"ADM2_CODE": 10220, "ADM1_NAME": "Telangana", "ADM2_NAME": "Adilabad"}}, {"type": "Feature", "geometry": {"type": "Polygon", "coordinates": [[[74.05, 11.5], [74.55, 11.5], [74.55, 11.95], [74.05, 11.95], [74.05, 11.5]]]}, "properties": {"ADM2_CODE": 10221, "ADM1_NAME": "Telangana", "ADM2_NAME": "Hyderabad"}}, {"type": "Feature", "geometry": {"type": "Polygon", "coordinates": [[[74.6, 11.5], [75.1, 11.5], [75.1, 11.95], [74.6, 11.95], [74.6, 11.5]]]}, "properties": {"ADM2_CODE": 10222, "ADM1_NAME": "Telangana", "ADM2_NAME": "Karimnagar"}}, {"type": "Feature", "geometry": {"type": "Polygon", "coordinates": [[[75.15, 11.5], [75.65, 11.5], [75.65, 11.95], [75.15, 11.95], [75.15, 11.5]]]}, "properties": {"ADM2_CODE": 10223, "ADM1_NAME": "Telangana", "ADM2_NAME": "Khammam"}}, {"type": "Feature", "geometry": {"type": "Polygon", "coordinates": [[[75.7, 11.5], [76.2, 11.5], [76.2, 11.95], [75.7, 11.95], [75.7, 11.5]]]}, "properties": {"ADM2_CODE": 10224, "ADM1_NAME": "Telangana", "ADM2_NAME": "Mahabubnagar"}}, {"type": "Feature", "geometry": {"type": "Polygon", "coordinates": [[[76.25, 11.5], [76.75, 11.5], [76.75, 11.95], [76.25, 11.95], [76.25, 11.5]]]}, "properties": {"ADM2_CODE": 10225, "ADM1_NAME": "Telangana", "ADM2_NAME": "Medak"}}, {"type": "Feature", "geometry": {"type": "Polygon", "coordinates": [[[76.8, 11.5], [77.3, 11.5], [77.3, 11.95], [76.8, 11.95], [76.8, 11.5]]]}, "properties": {"ADM2_CODE": 10226, "ADM1_NAME": "Telangana", "ADM2_NAME": "Nalgonda"}}, {"type": "Feature", "geometry": {"type": "Polygon", "coordinates": [[[77.35, 11.5], [77.85, 11.5], [77.85, 11.95], [77.35, 11.95], [77.35, 11.5]]]}, "properties": {"ADM2_CODE": 10227, "ADM1_NAME": "Telangana", "ADM2_NAME": "Nizamabad"}}, {"type": "Feature", "geometry": {"type": "Polygon", "coordinates": [[[77.9, 11.5], [78.4, 11.5], [78.4, 11.95], [77.9, 11.95], [77.9, 11.5]]]}, "properties": {"ADM2_CODE": 10228, "ADM1_NAME": "Telangana", "ADM2_NAME": "Warangal"}}, {"type": "Feature", "geometry": {"type": "Polygon", "coordinates": [[[78.45, 11.5], [78.95, 11.5], [78.95, 11.95], [78.45, 11.95], [78.45, 11.5]]]}, "properties": {"ADM2_CODE": 10229, "ADM1_NAME": "Uttar Pradesh", "ADM2_NAME": "Agra"}}, {"type": "Feature", "geometry": {"type": "Polygon", "coordinates": [[[79.0, 11.5], [79.5, 11.5], [79.5, 11.95], [79.0, 11.95], [79.0, 11.5]]]}, "properties": {"ADM2_CODE": 10230, "ADM1_NAME": "Uttar Pradesh", "ADM2_NAME": "Aligarh"}}, {"type": "Feature", "geometry": {"type": "Polygon", "coordinates": [[[79.55, 11.5], [80.05, 11.5], [80.05, 11.95], [79.55, 11.95], [79.55, 11.5]]]}, "properties": {"ADM2_CODE": 10231, "ADM1_NAME": "Uttar Pradesh", "ADM2_NAME": "Allahabad"}}, {"type": "Feature", "geometry": {"type": "Polygon", "coordinates": [[[80.1, 11.5], [80.6, 11.5], [80.6, 11.95], [80.1, 11.95], [80.1, 11.5]]]}, "properties": {"ADM2_CODE": 10232, "ADM1_NAME": "Uttar Pradesh", "ADM2_NAME": "Azamgarh"}}, {"type": "Feature", "geometry": {"type": "Polygon", "coordinates": [[[80.65, 11.5], [81.15, 11.5], [81.15, 11.95], [80.65, 11.95], [80.65, 11.5]]]}, "properties": {"ADM2_CODE": 10233, "ADM1_NAME": "Uttar Pradesh", "ADM2_NAME": "Bahraich"}}, {"type": "Feature", "geometry": {"type": "Polygon", "coordinates": [[[81.2, 11.5], [81.7, 11.5], [81.7, 11.95], [81.2, 11.95], [81.2, 11.5]]]}, "properties": {"ADM2_CODE": 10234, "ADM1_NAME": "Uttar Pradesh", "ADM2_NAME": "Ballia"}}, {"type": "Feature", "geometry": {"type": "Polygon", "coordinates": [[[81.75, 11.5], [82.25, 11.5], [82.25, 11.95], [81.75, 11.95], [81.75, 11.5]]]}, "properties": {"ADM2_CODE": 10235, "ADM1_NAME": "Uttar Pradesh", "ADM2_NAME": "Banda"}}, {"type": "Feature", "geometry": {"type": "Polygon", "coordinates": [[[82.3, 11.5], [82.8, 11.5], [82.8, 11.95], [82.3, 11.95], [82.3, 11.5]]]}, "properties": {"ADM2_CODE": 10236, "ADM1_NAME": "Uttar Pradesh", "ADM2_NAME": "Barabanki"}}, {"type": "Feature", "geometry": {"type": "Polygon", "coordinates": [[[82.85, 11.5], [83.35, 11.5], [83.35, 11.95], [82.85, 11.95], [82.85, 11.5]]]}, "properties": {"ADM2_CODE": 10237, "ADM1_NAME": "Uttar Pradesh", "ADM2_NAME": "Bareilly"}}, {"type": "Feature", "geometry": {"type": "Polygon", "coordinates": [[[83.4, 11.5], [83.9, 11.5], [83.9, 11.95], [83.4, 11.95], [83.4, 11.5]]]}, "properties": {"ADM2_CODE": 10238, "ADM1_NAME": "Uttar Pradesh", "ADM2_NAME": "Basti"}}, {"type": "Feature", "geometry": {"type": "Polygon", "coordinates": [[[83.95, 11.5], [84.45, 11.5], [84.45, 11.95], [83.95, 11.95], [83.95, 11.5]]]}, "properties": {"ADM2_CODE": 10239, "ADM1_NAME": "Uttar Pradesh", "ADM2_NAME": "Bijnor"}}, {"type": "Feature", "geometry": {"type": "Polygon", "coordinates": [[[68.0, 12.0], [68.5, 12.0], [68.5, 12.45], [68.0, 12.45], [68.0, 12.0]]]}, "properties": {"ADM2_CODE": 10240, "ADM1_NAME": "Uttar Pradesh", "ADM2_NAME": "Budaun"}}, {"type": "Feature", "geometry": {"type": "Polygon", "coordinates": [[[68.55, 12.0], [69.05, 12.0], [69.05, 12.45], [68.55, 12.45], [68.55, 12.0]]]}, "properties": {"ADM2_CODE": 10241, "ADM1_NAME": "Uttar Pradesh", "ADM2_NAME": "Buland Shahar"}}, {"type": "Feature", "geometry": {"type": "Polygon", "coordinates": [[[69.1, 12.0], [69.6, 12.0], [69.6, 12.45], [69.1, 12.45], [69.1, 12.0]]]}, "properties": {"ADM2_CODE": 10242, "ADM1_NAME": "Uttar Pradesh", "ADM2_NAME": "Deoria"}}, {"type": "Feature", "geometry": {"type": "Polygon", "coordinates": [[[69.65, 12.0], [70.15, 12.0], [70.15, 12.45], [69.65, 12.45], [69.65, 12.0]]]}, "properties": {"ADM2_CODE": 10243, "ADM1_NAME": "Uttar Pradesh", "ADM2_NAME": "Etah"}}, {"type": "Feature", "geometry": {"type": "Polygon", "coordinates": [[[70.2, 12.0], [70.7, 12.0], [70.7, 12.45], [70.2, 12.45], [70.2, 12.0]]]}, "properties": {"ADM2_CODE": 10244, "ADM1_NAME": "Uttar Pradesh", "ADM2_NAME": "Etawah"}}, {"type": "Feature", "geometry": {"type": "Polygon", "coordinates": [[[70.75, 12.0], [71.25, 12.0], [71.25, 12.45], [70.75, 12.45], [70.75, 12.0]]]}, "properties": {"ADM2_CODE": 10245, "ADM1_NAME": "Uttar Pradesh", "ADM2_NAME": "Faizabad"}}, {"type": "Feature", "geometry": {"type": "Polygon", "coordinates": [[[71.3, 12.0], [71.8, 12.0], [71.8, 12.45], [71.3, 12.45], [71.3, 12.0]]]}, "properties": {"ADM2_CODE": 10246, "ADM1_NAME": "Uttar Pradesh", "ADM2_NAME": "Farrukhabad"}}, {"type": "Feature", "geometry": {"type": "Polygon", "coordinates": [[[71.85, 12.0], [72.35, 12.0], [72.35, 12.45], [71.85, 12.45], [71.85, 12.0]]]}, "properties": {"ADM2_CODE": 10247, "ADM1_NAME": "Uttar Pradesh", "ADM2_NAME": "Fatehpur"}}, {"type": "Feature", "geometry": {"type": "Polygon", "coordinates": [[[72.4, 12.0], [72.9, 12.0], [72.9, 12.45], [72.4, 12.45], [72.4, 12.0]]]}, "properties": {"ADM2_CODE": 10248, "ADM1_NAME": "Uttar Pradesh", "ADM2_NAME": "Ghazipur"}}, {"type": "Feature", "geometry": {"type": "Polygon", "coordinates": [[[72.95, 12.0], [73.45, 12.0], [73.45, 12.45], [72.95, 12.45], [72.95, 12.0]]]}, "properties": {"ADM2_CODE": 10249, "ADM1_NAME": "Uttar Pradesh", "ADM2_NAME": "Gonda"}}, {"type": "Feature", "geometry": {"type": "Polygon", "coordinates": [[[73.5, 12.0], [74.0, 12.0], [74.0, 12.45], [73.5, 12.45], [73.5, 12.0]]]}, "properties": {"ADM2_CODE": 10250, "ADM1_NAME": "Uttar Pradesh", "ADM2_NAME": "Gorakhpur"}}, {"type": "Feature", "geometry": {"type": "Polygon", "coordinates": [[[74.05, 12.0], [74.55, 12.0], [74.55, 12.45], [74.05, 12.45], [74.05, 12.0]]]}, "properties": {"ADM2_CODE": 10251, "ADM1_NAME": "Uttar Pradesh", "ADM2_NAME": "Hamirpur"}}, {"type": "Feature", "geometry": {"type": "Polygon", "coordinates": [[[74.6, 12.0], [75.1, 12.0], [75.1, 12.45], [74.6, 12.45], [74.6, 12.0]]]}, "properties": {"ADM2_CODE": 10252, "ADM1_NAME": "Uttar Pradesh", "ADM2_NAME": "Hardoi"}}, {"type": "Feature", "geometry": {"type": "Polygon", "coordinates": [[[75.15, 12.0], [75.65, 12.0], [75.65, 12.45], [75.15, 12.45], [75.15, 12.0]]]}, "properties": {"ADM2_CODE": 10253, "ADM1_NAME": "Uttar Pradesh", "ADM2_NAME": "Jalaun"}}, {"type": "Feature", "geometry": {"type": "Polygon", "coordinates": [[[75.7, 12.0], [76.2, 12.0], [76.2, 12.45], [75.7, 12.45], [75.7, 12.0]]]}, "properties": {"ADM2_CODE": 10254, "ADM1_NAME": "Uttar Pradesh", "ADM2_NAME": "Jaunpur"}}, {"type": "Feature", "geometry": {"type": "Polygon", "coordinates": [[[76.25, 12.0], [76.75, 12.0], [76.75, 12.45], [76.25, 12.45], [76.25, 12.0]]]}, "properties": {"ADM2_CODE": 10255, "ADM1_NAME": "Uttar Pradesh", "ADM2_NAME": "Jhansi"}}, {"type": "Feature", "geometry": {"type": "Polygon", "coordinates": [[[76.8, 12.0], [77.3, 12.0], [77.3, 12.45], [76.8, 12.45], [76.8, 12.0]]]}, "properties": {"ADM2_CODE": 10256, "ADM1_NAME": "Uttar Pradesh", "ADM2_NAME": "Kanpur"}}, {"type": "Feature", "geometry": {"type": "Polygon", "coordinates": [[[77.35, 12.0], [77.85, 12.0], [77.85, 12.45], [77.35, 12.45], [77.35, 12.0]]]}, "properties": {"ADM2_CODE": 10257, "ADM1_NAME": "Uttar Pradesh", "ADM2_NAME": "Kheri"}}, {"type": "Feature", "geometry": {"type": "Polygon", "coordinates": [[[77.9, 12.0], [78.4, 12.0], [78.4, 12.45], [77.9, 12.45], [77.9, 12.0]]]}, "properties": {"ADM2_CODE": 10258, "ADM1_NAME": "Uttar Pradesh", "ADM2_NAME": "Lucknow"}}, {"type": "Feature", "geometry": {"type": "Polygon", "coordinates": [[[78.45, 12.0], [78.95, 12.0], [78.95, 12.45], [78.45, 12.45], [78.45, 12.0]]]}, "properties": {"ADM2_CODE": 10259, "ADM1_NAME": "Uttar Pradesh", "ADM2_NAME": "Mainpuri"}}, {"type": "Feature", "geometry": {"type": "Polygon", "coordinates": [[[79.0, 12.0], [79.5, 12.0], [79.5, 12.45], [79.0, 12.45], [79.0, 12.0]]]}, "properties": {"ADM2_CODE": 10260, "ADM1_NAME": "Uttar Pradesh", "ADM2_NAME": "Mathura"}}, {"type": "Feature", "geometry": {"type": "Polygon", "coordinates": [[[79.55, 12.0], [80.05, 12.0], [80.05, 12.45], [79.55, 12.45], [79.55, 12.0]]]}, "properties": {"ADM2_CODE": 10261, "ADM1_NAME": "Uttar Pradesh", "ADM2_NAME": "Meerut"}}, {"type": "Feature", "geometry": {"type": "Polygon", "coordinates": [[[80.1, 12.0], [80.6, 12.0], [80.6, 12.45], [80.1, 12.45], [80.1, 12.0]]]}, "properties": {"ADM2_CODE": 10262, "ADM1_NAME": "Uttar Pradesh", "ADM2_NAME": "Mirzpur"}}, {"type": "Feature", "geometry": {"type": "Polygon", "coordinates": [[[80.65, 12.0], [81.15, 12.0], [81.15, 12.45], [80.65, 12.45], [80.65, 12.0]]]}, "properties": {"ADM2_CODE": 10263, "ADM1_NAME": "Uttar Pradesh", "ADM2_NAME": "Moradabad"}}, {"type": "Feature", "geometry": {"type": "Polygon", "coordinates": [[[81.2, 12.0], [81.7, 12.0], [81.7, 12.45], [81.2, 12.45], [81.2, 12.0]]]}, "properties": {"ADM2_CODE": 10264, "ADM1_NAME": "Uttar Pradesh", "ADM2_NAME": "Muzaffarnagar"}}, {"type": "Feature", "geometry": {"type": "Polygon", "coordinates": [[[81.75, 12.0], [82.25, 12.0], [82.25, 12.45], [81.75, 12.45], [81.75, 12.0]]]}, "properties": {"ADM2_CODE": 10265, "ADM1_NAME": "Uttar Pradesh", "ADM2_NAME": "Pilibhit"}}, {"type": "Feature", "geometry": {"type": "Polygon", "coordinates": [[[82.3, 12.0], [82.8, 12.0], [82.8, 12.45], [82.3, 12.45], [82.3, 12.0]]]}, "properties": {"ADM2_CODE": 10266, "ADM1_NAME": "Uttar Pradesh", "ADM2_NAME": "Pratapgarh"}}, {"type": "Feature", "geometry": {"type": "Polygon", "coordinates": [[[82.85, 12.0], [83.35, 12.0], [83.35, 12.45], [82.85, 12.45], [82.85, 12.0]]]}, "properties": {"ADM2_CODE": 10267, "ADM1_NAME": "Uttar Pradesh", "ADM2_NAME": "Rae-Bareily"}}, {"type": "Feature", "geometry": {"type": "Polygon", "coordinates": [[[83.4, 12.0], [83.9, 12.0], [83.9, 12.45], [83.4, 12.45], [83.4, 12.0]]]}, "properties": {"ADM2_CODE": 10268, "ADM1_NAME": "Uttar Pradesh", "ADM2_NAME": "Rampur"}}, {"type": "Feature", "geometry": {"type": "Polygon", "coordinates": [[[83.95, 12.0], [84.45, 12.0], [84.45, 12.45], [83.95, 12.45], [83.95, 12.0]]]}, "properties": {"ADM2_CODE": 10269, "ADM1_NAME": "Uttar Pradesh", "ADM2_NAME": "Saharanpur"}}, {"type": "Feature", "geometry": {"type": "Polygon", "coordinates": [[[68.0, 12.5], [68.5, 12.5], [68.5, 12.95], [68.0, 12.95], [68.0, 12.5]]]}, "properties": {"ADM2_CODE": 10270, "ADM1_NAME": "Uttar Pradesh", "ADM2_NAME": "Shahjahanpur"}}, {"type": "Feature", "geometry": {"type": "Polygon", "coordinates": [[[68.55, 12.5], [69.05, 12.5], [69.05, 12.95], [68.55, 12.95], [68.55, 12.5]]]}, "properties": {"ADM2_CODE": 10271, "ADM1_NAME": "Uttar Pradesh", "ADM2_NAME": "Sitapur"}}, {"type": "Feature", "geometry": {"type": "Polygon", "coordinates": [[[69.1, 12.5], [69.6, 12.5], [69.6, 12.95], [69.1, 12.95], [69.1, 12.5]]]}, "properties": {"ADM2_CODE": 10272, "ADM1_NAME": "Uttar Pradesh", "ADM2_NAME": "Sultanpur"}}, {"type": "Feature", "geometry": {"type": "Polygon", "coordinates": [[[69.65, 12.5], [70.15, 12.5], [70.15, 12.95], [69.65, 12.95], [69.65, 12.5]]]}, "properties": {"ADM2_CODE": 10273, "ADM1_NAME": "Uttar Pradesh", "ADM2_NAME": "Unnao"}}, {"type": "Feature", "geometry": {"type": "Polygon", "coordinates": [[[70.2, 12.5], [70.7, 12.5], [70.7, 12.95], [70.2, 12.95], [70.2, 12.5]]]}, "properties": {"ADM2_CODE": 10274, "ADM1_NAME": "Uttar Pradesh", "ADM2_NAME": "Varanasi"}}, {"type": "Feature", "geometry": {"type": "Polygon", "coordinates": [[[70.75, 12.5], [71.25, 12.5], [71.25, 12.95], [70.75, 12.95], [70.75, 12.5]]]}, "properties": {"ADM2_CODE": 10275, "ADM1_NAME": "Uttaranchal", "ADM2_NAME": "Almorah"}}, {"type": "Feature", "geometry": {"type": "Polygon", "coordinates": [[[71.3, 12.5], [71.8, 12.5], [71.8, 12.95], [71.3, 12.95], [71.3, 12.5]]]}, "properties": {"ADM2_CODE": 10276, "ADM1_NAME": "Uttaranchal", "ADM2_NAME": "Chamoli"}}, {"type": "Feature", "geometry": {"type": "Polygon", "coordinates": [[[71.85, 12.5], [72.35, 12.5], [72.35, 12.95], [71.85, 12.95], [71.85, 12.5]]]}, "properties": {"ADM2_CODE": 10277, "ADM1_NAME": "Uttaranchal", "ADM2_NAME": "Dehradun"}}, {"type": "Feature", "geometry": {"type": "Polygon", "coordinates": [[[72.4, 12.5], [72.9, 12.5], [72.9, 12.95], [72.4, 12.95], [72.4, 12.5]]]}, "properties": {"ADM2_CODE": 10278, "ADM1_NAME": "Uttaranchal", "ADM2_NAME": "Garhwal"}}, {"type": "Feature", "geometry": {"type": "Polygon", "coordinates": [[[72.95, 12.5], [73.45, 12.5], [73.45, 12.95], [72.95, 12.95], [72.95, 12.5]]]}, "properties": {"ADM2_CODE": 10279, "ADM1_NAME": "Uttaranchal", "ADM2_NAME": "Nainital"}}, {"type": "Feature", "geometry": {"type": "Polygon", "coordinates": [[[73.5, 12.5], [74.0, 12.5], [74.0, 12.95], [73.5, 12.95], [73.5, 12.5]]]}, "properties": {"ADM2_CODE": 10280, "ADM1_NAME": "Uttaranchal", "ADM2_NAME": "Pithorgarh"}}, {"type": "Feature", "geometry": {"type": "Polygon", "coordinates": [[[74.05, 12.5], [74.55, 12.5], [74.55, 12.95], [74.05, 12.95], [74.05, 12.5]]]}, "properties": {"ADM2_CODE": 10281, "ADM1_NAME": "Uttaranchal", "ADM2_NAME": "Tehri Garhwal"}}, {"type": "Feature", "geometry": {"type": "Polygon", "coordinates": [[[74.6, 12.5], [75.1, 12.5], [75.1, 12.95], [74.6, 12.95], [74.6, 12.5]]]}, "properties": {"ADM2_CODE": 10282, "ADM1_NAME": "Uttaranchal", "ADM2_NAME": "Uttar Kashi"}}, {"type": "Feature", "geometry": {"type": "Polygon", "coordinates": [[[75.15, 12.5], [75.65, 12.5], [75.65, 12.95], [75.15, 12.95], [75.15, 12.5]]]}, "properties": {"ADM2_CODE": 10283, "ADM1_NAME": "West Bengal", "ADM2_NAME": "24 Parganas"}}, {"type": "Feature", "geometry": {"type": "Polygon", "coordinates": [[[75.7, 12.5], [76.2, 12.5], [76.2, 12.95], [75.7, 12.95], [75.7, 12.5]]]}, "properties": {"ADM2_CODE": 10284, "ADM1_NAME": "West Bengal", "ADM2_NAME": "Bankura"}}, {"type": "Feature", "geometry": {"type": "Polygon", "coordinates": [[[76.25, 12.5], [76.75, 12.5], [76.75, 12.95], [76.25, 12.95], [76.25, 12.5]]]}, "properties": {"ADM2_CODE": 10285, "ADM1_NAME": "West Bengal", "ADM2_NAME": "Birbhum"}}, {"type": "Feature", "geometry": {"type": "Polygon", "coordinates": [[[76.8, 12.5], [77.3, 12.5], [77.3, 12.95], [76.8, 12.95], [76.8, 12.5]]]}, "properties": {"ADM2_CODE": 10286, "ADM1_NAME": "West Bengal", "ADM2_NAME": "Burdwan"}}, {"type": "Feature", "geometry": {"type": "Polygon", "coordinates": [[[77.35, 12.5], [77.85, 12.5], [77.85, 12.95], [77.35, 12.95], [77.35, 12.5]]]}, "properties": {"ADM2_CODE": 10287, "ADM1_NAME": "West Bengal", "ADM2_NAME": "Cooch Behar"}}, {"type": "Feature", "geometry": {"type": "Polygon", "coordinates": [[[77.9, 12.5], [78.4, 12.5], [78.4, 12.95], [77.9, 12.95], [77.9, 12.5]]]}, "properties": {"ADM2_CODE": 10288, "ADM1_NAME": "West Bengal", "ADM2_NAME": "Darjeeling"}}, {"type": "Feature", "geometry": {"type": "Polygon", "coordinates": [[[78.45, 12.5], [78.95, 12.5], [78.95, 12.95], [78.45, 12.95], [78.45, 12.5]]]}, "properties": {"ADM2_CODE": 10289, "ADM1_NAME": "West Bengal", "ADM2_NAME": "Hooghly"}}, {"type": "Feature", "geometry": {"type": "Polygon", "coordinates": [[[79.0, 12.5], [79.5, 12.5], [79.5, 12.95], [79.0, 12.95], [79.0, 12.5]]]}, "properties": {"ADM2_CODE": 10290, "ADM1_NAME": "West Bengal", "ADM2_NAME": "Howrah"}}, {"type": "Feature", "geometry": {"type": "Polygon", "coordinates": [[[79.55, 12.5], [80.05, 12.5], [80.05, 12.95], [79.55, 12.95], [79.55, 12.5]]]}, "properties": {"ADM2_CODE": 10291, "ADM1_NAME": "West Bengal", "ADM2_NAME": "Jalpaiguri"}}, {"type": "Feature", "geometry": {"type": "Polygon", "coordinates": [[[80.1, 12.5], [80.6, 12.5], [80.6, 12.95], [80.1, 12.95], [80.1, 12.5]]]}, "properties": {"ADM2_CODE": 10292, "ADM1_NAME": "West Bengal", "ADM2_NAME": "Malda"}}, {"type": "Feature", "geometry": {"type": "Polygon", "coordinates": [[[80.65, 12.5], [81.15, 12.5], [81.15, 12.95], [80.65, 12.95], [80.65, 12.5]]]}, "properties": {"ADM2_CODE": 10293, "ADM1_NAME": "West Bengal", "ADM2_NAME": "Midnapur"}}, {"type": "Feature", "geometry": {"type": "Polygon", "coordinates": [[[81.2, 12.5], [81.7, 12.5], [81.7, 12.95], [81.2, 12.95], [81.2, 12.5]]]}, "properties": {"ADM2_CODE": 10294, "ADM1_NAME": "West Bengal", "ADM2_NAME": "Murshidabad"}}, {"type": "Feature", "geometry": {"type": "Polygon", "coordinates": [[[81.75, 12.5], [82.25, 12.5], [82.25, 12.95], [81.75, 12.95], [81.75, 12.5]]]}, "properties": {"ADM2_CODE": 10295, "ADM1_NAME": "West Bengal", "ADM2_NAME": "Nadia"}}, {"type": "Feature", "geometry": {"type": "Polygon", "coordinates": [[[82.3, 12.5], [82.8, 12.5], [82.8, 12.95], [82.3, 12.95], [82.3, 12.5]]]}, "properties": {"ADM2_CODE": 10296, "ADM1_NAME": "West Bengal", "ADM2_NAME": "Purulia"}}, {"type": "Feature", "geometry": {"type": "Polygon", "coordinates": [[[82.85, 12.5], [83.35, 12.5], [83.35, 12.95], [82.85, 12.95], [82.85, 12.5]]]}, "properties": {"ADM2_CODE": 10297, "ADM1_NAME": "West Bengal", "ADM2_NAME": "West Dinajpur"}}]}